"","name","country.etc","pop","lat","long","capital","x","y","city"
"1","Abilene TX","TX",113888,32.45,-99.74,0,24543.5569106957,-1392670.42023747,"Abilene"
"2","Akron OH","OH",206634,41.08,-81.52,0,1533716.37373629,-262400.248153485,"Akron"
"3","Alameda CA","CA",70069,37.77,-122.26,0,-1931841.77194092,-543194.818801565,"Alameda"
"4","Albany GA","GA",75510,31.58,-84.18,0,1498524.3012967,-1350289.59462988,"Albany"
"5","Albany NY","NY",93576,42.67,-73.8,2,2096820.35794288,82431.2899494559,"Albany"
"6","Albany OR","OR",45535,44.62,-123.09,0,-1796636.46805072,216821.41538264,"Albany"
"7","Albuquerque NM","NM",494962,35.12,-106.62,0,-603588.142774049,-1073628.06880108,"Albuquerque"
"8","Alexandria LA","LA",44933,31.29,-92.46,0,720495.165839275,-1489295.73541198,"Alexandria"
"9","Alexandria VA","VA",127159,38.82,-77.09,0,1956568.28937454,-414114.47444602,"Alexandria"
"10","Alhambra CA","CA",88857,34.08,-118.13,0,-1661727.16117561,-1033932.49627245,"Alhambra"
"11","Aliso Viejo CA","CA",41975,33.57,-117.73,0,-1636250.26826294,-1097455.09715208,"Aliso Viejo"
"12","Allen TX","TX",84467,33.11,-96.67,0,311734.661262213,-1313662.234638,"Allen"
"13","Allentown PA","PA",105224,40.6,-75.48,0,2033825.32121538,-182664.972418819,"Allentown"
"14","Aloha OR","OR",45531,45.49,-122.87,0,-1752961.04163621,305745.298257385,"Aloha"
"15","Altadena CA","CA",43280,34.19,-118.13,0,-1659395.92173684,-1021915.33675229,"Altadena"
"16","Altamonte Springs FL","FL",40712,28.66,-81.4,0,1816485.8482667,-1615598.35141302,"Altamonte Springs"
"17","Altoona PA","PA",46442,40.51,-78.4,0,1801610.76944294,-260908.030717731,"Altoona"
"18","Amarillo TX","TX",183295,35.2,-101.82,0,-165960.295726722,-1086597.83149222,"Amarillo"
"19","Ames IA","IA",57683,42.02,-93.63,0,525733.423610795,-310906.120292604,"Ames"
"20","Anaheim CA","CA",334909,33.84,-117.87,0,-1643335.22642104,-1065236.90486849,"Anaheim"
"21","Anderson IN","IN",57036,40.09,-85.69,0,1210912.41487556,-440623.162994888,"Anderson"
"22","Andover MA","MA",67715,42.65,-71.14,0,2299684.26771338,152809.018532057,"Andover"
"23","Ann Arbor MI","MI",113716,42.28,-83.73,0,1327955.16584345,-169793.541766587,"Ann Arbor"
"24","Annandale VA","VA",57942,38.83,-77.21,0,1946358.49285303,-415874.086892081,"Annandale"
"25","Annapolis MD","MD",36300,38.98,-76.49,2,2001390.02344297,-382382.502093838,"Annapolis"
"26","Antioch CA","CA",109485,37.99,-121.8,0,-1887137.22021192,-529932.982492731,"Antioch"
"27","Apple Valley CA","CA",66361,34.53,-117.21,0,-1569793.44404575,-1002339.17901413,"Apple Valley"
"28","Apple Valley MN","MN",51609,44.75,-93.2,0,536204.31029159,-5297.39870922812,"Apple Valley"
"29","Appleton WI","WI",70090,44.27,-88.4,0,919718.215431461,-15323.3723681943,"Appleton"
"30","Arcadia CA","CA",57429,34.13,-118.04,0,-1652578.41823803,-1030235.03622795,"Arcadia"
"31","Arden-Arcade CA","CA",99968,38.6,-121.38,0,-1835551.49561806,-473147.425926726,"Arden-Arcade"
"32","Arlington Heights IL","IL",74763,42.09,-87.98,0,987758.438002742,-250944.151606383,"Arlington Heights"
"33","Arlington MA","MA",41246,42.42,-71.16,0,2306899.96281454,127814.35371375,"Arlington"
"34","Arlington TX","TX",374729,32.69,-97.13,0,270076.076569367,-1361651.69241561,"Arlington"
"35","Arlington VA","VA",184603,38.88,-77.1,0,1954018.04073625,-407856.044069625,"Arlington"
"36","Arvada CO","CO",101633,39.82,-105.11,0,-436519.628635943,-562331.387906751,"Arvada"
"37","Asheville NC","NC",68654,35.57,-82.55,0,1569775.43901093,-884083.826766846,"Asheville"
"38","Aspen Hill MD","MD",54029,39.09,-77.08,0,1949621.13976538,-384648.069394994,"Aspen Hill"
"39","Athens-Clarke GA","GA",103618,33.95,-83.39,0,1527232.08196995,-1076808.91325559,"Athens-Clarke"
"40","Atlanta GA","GA",424096,33.76,-84.42,2,1437328.81360274,-1115645.79409969,"Atlanta"
"41","Atlantic City NJ","NJ",40529,39.38,-74.45,0,2155552.68884153,-287611.871318101,"Atlantic City"
"42","Attleboro MA","MA",44690,41.93,-71.3,0,2314703.34321249,71738.0580194716,"Attleboro"
"43","Auburn AL","AL",51236,32.59,-85.48,0,1360313.46206746,-1261371.98103708,"Auburn"
"44","Auburn WA","WA",46108,47.3,-122.21,0,-1648240.84853849,486801.607920145,"Auburn"
"45","Augusta ME","ME",18626,44.32,-69.77,2,2335450.11322123,369102.044616481,"Augusta"
"46","Augusta-Richmond GA","GA",192376,33.46,-81.99,0,1663909.61099933,-1104021.68177165,"Augusta-Richmond"
"47","Aurora CO","CO",304641,39.71,-104.73,0,-404767.915901577,-576464.298725615,"Aurora"
"48","Aurora IL","IL",181120,41.77,-88.29,0,967429.605909562,-289952.747462059,"Aurora"
"49","Austin TX","TX",683404,30.31,-97.75,2,217746.653975851,-1626153.70063841,"Austin"
"50","Avondale AZ","AZ",79125,33.42,-112.32,0,-1144374.79420656,-1202546.53944608,"Avondale"
"51","Azusa CA","CA",48992,34.14,-117.91,0,-1640679.99978268,-1031675.98953296,"Azusa"
"52","Bakersfield CA","CA",301775,35.36,-119,0,-1711164.45638532,-876745.176708122,"Bakersfield"
"53","Baldwin Park CA","CA",81467,34.08,-117.97,0,-1647334.73229104,-1037065.22145599,"Baldwin Park"
"54","Baltimore MD","MD",602658,39.3,-76.61,0,1982090.31408954,-350692.705475916,"Baltimore"
"55","Barnstable Town MA","MA",49598,41.7,-70.3,0,2399802.7693484,76499.4373360874,"Barnstable Town"
"56","Bartlett TN","TN",43852,35.22,-89.84,0,923567.762732677,-1030598.00506973,"Bartlett"
"57","Baton Rouge LA","LA",222217,30.45,-91.13,2,855326.409437322,-1569629.5861045,"Baton Rouge"
"58","Battle Creek MI","MI",54179,42.3,-85.23,0,1206884.63599021,-190894.892535101,"Battle Creek"
"59","Bayonne NJ","NJ",59482,40.66,-74.11,0,2140858.57876268,-141146.268046642,"Bayonne"
"60","Baytown TX","TX",67487,29.75,-94.97,0,489590.083527547,-1676533.11143612,"Baytown"
"61","Beaumont TX","TX",110949,30.09,-94.14,0,568068.940166739,-1634027.83232608,"Beaumont"
"62","Beavercreek OH","OH",41297,39.73,-84.06,0,1354146.98396223,-454823.068915561,"Beavercreek"
"63","Beaverton OR","OR",83920,45.48,-122.82,0,-1749571.71217674,303573.548270029,"Beaverton"
"64","Bedford TX","TX",49572,32.85,-97.13,0,269550.594635935,-1343967.17837996,"Bedford"
"65","Bel Air South MD","MD",50874,39.5,-76.32,0,1999842.53830648,-322046.472938439,"Bel Air South"
"66","Bell Gardens CA","CA",46504,33.97,-118.15,0,-1665855.3651533,-1045555.36867742,"Bell Gardens"
"67","Belleville IL","IL",40745,38.53,-90,0,868662.159821496,-666830.188349716,"Belleville"
"68","Bellevue NE","NE",48894,41.16,-95.92,0,341578.915022717,-418449.295082197,"Bellevue"
"69","Bellevue WA","WA",111896,47.6,-122.16,0,-1635305.96012502,518107.609205601,"Bellevue"
"70","Bellflower CA","CA",76437,33.89,-118.13,0,-1665744.10795299,-1054688.45992415,"Bellflower"
"71","Bellingham WA","WA",74770,48.74,-122.47,0,-1621104.98713832,647228.898762769,"Bellingham"
"72","Bend OR","OR",68945,44.07,-121.31,0,-1678220.76518184,118940.552824295,"Bend"
"73","Berkeley CA","CA",99653,37.87,-122.27,0,-1929931.33334563,-532116.397840605,"Berkeley"
"74","Berwyn IL","IL",50904,41.84,-87.79,0,1007243.65900584,-276205.292597274,"Berwyn"
"75","Bethesda MD","MD",52217,38.99,-77.12,0,1949205.04532859,-396421.094495321,"Bethesda"
"76","Bethlehem PA","PA",74087,40.63,-75.37,0,2041656.9119334,-176686.67484673,"Bethlehem"
"77","Beverly MA","MA",40441,42.56,-70.84,0,2325748.10528108,151872.752460728,"Beverly"
"78","Billerica MA","MA",40063,42.56,-71.26,0,2294034.60860209,139830.02803439,"Billerica"
"79","Billings MT","MT",101249,45.79,-108.54,0,-660619.92401593,122841.194895621,"Billings"
"80","Biloxi MS","MS",47110,30.41,-88.93,0,1066679.65289998,-1549547.01024528,"Biloxi"
"81","Binghamton NY","NY",45070,42.1,-75.91,0,1952542.91803813,-31579.7345921327,"Binghamton"
"82","Birmingham AL","AL",229300,33.53,-86.8,0,1223657.826864,-1178200.09559063,"Birmingham"
"83","Bismarck ND","ND",56927,46.81,-100.77,2,-58606.2525160588,201535.020068498,"Bismarck"
"84","Blacksburg VA","VA",40303,37.23,-80.43,0,1717130.80985565,-661061.242582092,"Blacksburg"
"85","Blaine MN","MN",56140,45.17,-93.21,0,531508.912997267,41215.3814003975,"Blaine"
"86","Bloomfield NJ","NJ",49358,40.81,-74.19,0,2129538.62899281,-127140.839662647,"Bloomfield"
"87","Bloomfield Township MI","MI",43032,42.58,-83.27,0,1358220.34116986,-129346.015667591,"Bloomfield Township"
"88","Bloomington IL","IL",71804,40.48,-88.97,0,930187.439184469,-440218.09285031,"Bloomington"
"89","Bloomington IN","IN",71260,39.17,-86.52,0,1157255.3359273,-553745.626480089,"Bloomington"
"90","Bloomington MN","MN",80627,44.83,-93.32,0,526037.970248382,2788.69157643715,"Bloomington"
"91","Blue Springs MO","MO",50116,39.02,-94.27,0,495205.757082728,-647577.338268357,"Blue Springs"
"92","Boca Raton FL","FL",81868,26.37,-80.11,0,1987295.46320264,-1836363.50371007,"Boca Raton"
"93","Boise ID","ID",193628,43.61,-116.23,2,-1296009.29879569,-24681.4392229359,"Boise"
"94","Bolingbrook IL","IL",76994,41.7,-88.08,0,985722.196785743,-295175.07486967,"Bolingbrook"
"95","Bonita Springs FL","FL",43842,26.34,-81.79,0,1823071.69231692,-1876182.88101674,"Bonita Springs"
"96","Bossier City LA","LA",60142,32.52,-93.66,0,597312.626062811,-1362857.83997181,"Bossier City"
"97","Boston MA","MA",567759,42.34,-71.02,2,2320541.73419467,123337.123057332,"Boston"
"98","Boulder CO","CO",90957,40.03,-105.25,0,-447048.919981876,-538287.106255593,"Boulder"
"99","Bountiful UT","UT",41622,40.88,-111.87,0,-994306.886010565,-386250.109937136,"Bountiful"
"100","Bourne MA","MA",48580,41.74,-70.61,0,2374607.54373182,71581.3905078836,"Bourne"
"101","Bowie MD","MD",56949,38.96,-76.74,0,1981397.46699324,-390595.020220862,"Bowie"
"102","Bowling Green KY","KY",51999,36.97,-86.44,0,1201143.1086204,-794738.503786608,"Bowling Green"
"103","Boynton Beach FL","FL",67720,26.53,-80.08,0,1986977.56164548,-1818315.58669714,"Boynton Beach"
"104","Bradenton FL","FL",55606,27.49,-82.58,0,1724650.49675979,-1767064.46924112,"Bradenton"
"105","Brandon FL","FL",92728,27.93,-82.29,0,1744740.69613124,-1713359.38608748,"Brandon"
"106","Brea CA","CA",40349,33.92,-117.87,0,-1641670.89909796,-1056494.5455008,"Brea"
"107","Bremerton WA","WA",45306,47.55,-122.7,0,-1675403.40354253,523981.731176824,"Bremerton"
"108","Brentwood CA","CA",52747,37.93,-121.71,0,-1881181.02993348,-538495.20746311,"Brentwood"
"109","Brentwood NY","NY",58954,40.78,-73.25,0,2204725.31454905,-105332.7804077,"Brentwood"
"110","Brewster MA","MA",52153,41.77,-70.08,0,2413847.420237,90472.792490816,"Brewster"
"111","Brick NJ","NJ",82400,40.06,-74.11,0,2160735.67288601,-205567.073286796,"Brick"
"112","Bridgeport CT","CT",138901,41.19,-73.2,0,2194487.23461205,-60091.034970611,"Bridgeport"
"113","Bridgewater MA","MA",50237,41.99,-70.97,0,2337627.37631027,87617.1714714175,"Bridgewater"
"114","Bristol CT","CT",61166,41.68,-72.94,0,2197596.59631557,-645.88257142729,"Bristol"
"115","Brockton MA","MA",94945,42.08,-71.03,0,2329647.73704068,95440.7578913473,"Brockton"
"116","Broken Arrow OK","OK",86817,36.04,-95.79,0,379499.096919409,-985814.388643997,"Broken Arrow"
"117","Brookfield WI","WI",40323,43.06,-88.12,0,961070.36252907,-145599.931679599,"Brookfield"
"118","Brookline MA","MA",55862,42.32,-71.14,0,2312202.23914415,117766.382101014,"Brookline"
"119","Brooklyn Park MN","MN",67660,45.11,-93.35,0,521129.395852552,33650.276335737,"Brooklyn Park"
"120","Broomfield CO","CO",45869,39.94,-105.06,0,-431478.625285242,-549280.074877501,"Broomfield"
"121","Brownsville TX","TX",174135,25.93,-97.48,0,255490.233475083,-2107072.31235864,"Brownsville"
"122","Bryan TX","TX",70386,30.67,-96.37,0,349783.161698853,-1581927.84998724,"Bryan"
"123","Buena Park CA","CA",79388,33.86,-118,0,-1654650.69477882,-1060517.61136612,"Buena Park"
"124","Buffalo Grove IL","IL",43355,42.17,-87.96,0,988117.462897812,-241877.460434533,"Buffalo Grove"
"125","Buffalo NY","NY",276762,42.89,-78.86,0,1698588.64054872,-12554.8476454324,"Buffalo"
"126","Burbank CA","CA",105515,34.19,-118.33,0,-1677350.4990921,-1017964.13103416,"Burbank"
"127","Burke VA","VA",58270,38.78,-77.27,0,1942820.01282797,-422705.060872139,"Burke"
"128","Burlington NC","NC",47290,36.08,-79.45,0,1829732.80771361,-765503.065231948,"Burlington"
"129","Burnsville MN","MN",59357,44.76,-93.28,0,529822.32634907,-4714.4805647896,"Burnsville"
"130","Camarillo CA","CA",63560,34.22,-119.03,0,-1739431.44740876,-1000522.25472946,"Camarillo"
"131","Cambridge MA","MA",101342,42.38,-71.12,0,2311445.7904498,124711.993534262,"Cambridge"
"132","Camden NJ","NJ",80393,39.94,-75.11,0,2084347.60869394,-244433.020257242,"Camden"
"133","Canton MI","MI",89064,42.31,-83.48,0,1347361.67249137,-162405.972664588,"Canton"
"134","Canton OH","OH",77575,40.81,-81.37,0,1552409.3630223,-289054.106745732,"Canton"
"135","Cape Coral FL","FL",137134,26.64,-82,0,1796894.6545741,-1847897.82861374,"Cape Coral"
"136","Carlsbad CA","CA",93848,33.12,-117.29,0,-1605324.03421957,-1155053.82352766,"Carlsbad"
"137","Carmel IN","IN",49188,39.97,-86.11,0,1177927.60917785,-459904.96734756,"Carmel"
"138","Carmichael CA","CA",51165,38.63,-121.32,0,-1829741.99296099,-471219.916961587,"Carmichael"
"139","Carol City FL","FL",63659,25.94,-80.27,0,1980247.41551809,-1886653.30052853,"Carol City"
"140","Carol Stream IL","IL",39749,41.92,-88.13,0,978195.901554033,-271500.756128081,"Carol Stream"
"141","Carrollton TX","TX",123154,32.99,-96.9,0,290643.154440738,-1327738.33606279,"Carrollton"
"142","Carson CA","CA",96933,33.84,-118.26,0,-1678523.85949698,-1057579.64783746,"Carson"
"143","Carson City NV","NV",58350,39.15,-119.74,2,-1684565.80145266,-448274.346784934,"Carson City"
"144","Cary NC","NC",106117,35.78,-78.8,0,1893744.7747432,-783662.289531772,"Cary"
"145","Casas Adobes AZ","AZ",84988,32.32,-110.99,0,-1035579.98661981,-1340549.71014012,"Casas Adobes"
"146","Casper WY","WY",51808,42.83,-106.33,0,-515646.04010495,-221307.630626057,"Casper"
"147","Castle Rock CO","CO",43905,39.38,-104.85,0,-417059.100941803,-612482.183629806,"Castle Rock"
"148","Castro Valley CA","CA",63908,37.71,-122.06,0,-1916628.01146719,-554349.497606037,"Castro Valley"
"149","Catalina Foothills AZ","AZ",84369,32.3,-110.92,0,-1029275.82387521,-1343594.77274456,"Catalina Foothills"
"150","Cathedral City CA","CA",55253,33.83,-116.46,0,-1515954.79201143,-1092642.28784035,"Cathedral City"
"151","Catonsville MD","MD",43406,39.26,-76.74,0,1972613.37157121,-358145.989500114,"Catonsville"
"152","Cedar Hill TX","TX",46869,32.58,-96.96,0,286447.401582106,-1373255.77384971,"Cedar Hill"
"153","Cedar Park TX","TX",58499,30.51,-97.83,0,209529.871818605,-1604295.79843135,"Cedar Park"
"154","Cedar Rapids IA","IA",123243,41.97,-91.67,0,687435.776085707,-301951.901856386,"Cedar Rapids"
"155","Centennial CO","CO",95961,39.6,-104.85,0,-415702.478392664,-588075.236479952,"Centennial"
"156","Centreville VA","VA",69167,38.85,-77.44,0,1926760.04595682,-419113.471402087,"Centreville"
"157","Ceres CA","CA",41223,37.6,-120.96,0,-1826483.84696116,-591128.499213782,"Ceres"
"158","Cerritos CA","CA",53616,33.87,-118.07,0,-1660755.27341283,-1058053.25180491,"Cerritos"
"159","Champaign IL","IL",76999,40.11,-88.26,0,995158.376706642,-472778.455177638,"Champaign"
"160","Chandler AZ","AZ",247915,33.3,-111.87,0,-1104559.72660762,-1221691.96558665,"Chandler"
"161","Chantilly VA","VA",50103,38.88,-77.41,0,1928392.51939617,-415161.343137513,"Chantilly"
"162","Chapel Hill NC","NC",47613,35.93,-79.04,0,1869087.69945889,-772751.693489464,"Chapel Hill"
"163","Charleston SC","SC",106372,32.79,-79.99,0,1860095.16533774,-1135549.01348694,"Charleston"
"164","Charleston WV","WV",49804,38.35,-81.63,2,1588569.66065633,-562694.688221326,"Charleston"
"165","Charlotte NC","NC",607111,35.2,-80.83,0,1729799.54906972,-890720.311801543,"Charlotte"
"166","Chattanooga TN","TN",153617,35.07,-85.26,0,1338134.65827027,-985725.894018074,"Chattanooga"
"167","Cheektowaga NY","NY",76785,42.91,-78.75,0,1706611.26235696,-8074.91817316029,"Cheektowaga"
"168","Cherry Hill PA","PA",70489,39.9,-75,0,2094477.02413134,-245931.046743377,"Cherry Hill"
"169","Chesapeake VA","VA",223222,36.68,-76.31,0,2083508.93755748,-626645.422219548,"Chesapeake"
"170","Chesterfield MO","MO",47202,38.65,-90.58,0,817136.442893178,-659442.178875774,"Chesterfield"
"171","Cheyenne WY","WY",55833,41.15,-104.79,2,-401005.695050253,-416359.440570954,"Cheyenne"
"172","Chicago IL","IL",2830144,41.84,-87.68,0,1016233.23741541,-274846.709545953,"Chicago"
"173","Chico CA","CA",71997,39.75,-121.81,0,-1839796.80304947,-338704.756136052,"Chico"
"174","Chicopee MA","MA",55222,42.18,-72.57,0,2208314.9722079,62826.2653116233,"Chicopee"
"175","Chino CA","CA",77147,34.01,-117.69,0,-1623576.04722051,-1050132.93606433,"Chino"
"176","Chino Hills CA","CA",80817,33.97,-117.75,0,-1629811.75774362,-1053350.97898022,"Chino Hills"
"177","Chula Vista CA","CA",221736,32.63,-117.04,0,-1592059.37983299,-1213332.18856676,"Chula Vista"
"178","Cicero IL","IL",80414,41.84,-87.76,0,1009695.58724669,-275835.974324064,"Cicero"
"179","Cincinnati OH","OH",301561,39.14,-84.51,0,1328071.57029474,-526873.897498515,"Cincinnati"
"180","Citrus Heights CA","CA",90277,38.69,-121.29,0,-1825639.07236082,-465365.252950179,"Citrus Heights"
"181","Clarksville TN","TN",113379,36.56,-87.35,0,1127644.91075479,-852520.70006018,"Clarksville"
"182","Clearwater FL","FL",107866,27.98,-82.77,0,1697310.34583257,-1717407.30298104,"Clearwater"
"183","Cleveland Heights OH","OH",47123,41.51,-81.56,0,1520154.15524941,-216194.345184404,"Cleveland Heights"
"184","Cleveland OH","OH",443949,41.48,-81.68,0,1511185.02100384,-221695.650614853,"Cleveland"
"185","Clifton NJ","NJ",80446,40.86,-74.16,0,2130246.68274558,-120988.797511726,"Clifton"
"186","Clinton MI","MI",100517,42.59,-82.92,0,1385895.35717058,-122354.143361266,"Clinton"
"187","Clovis CA","CA",90115,36.82,-119.7,0,-1738148.42067238,-703063.785214958,"Clovis"
"188","Coconut Creek FL","FL",51848,26.28,-80.18,0,1982262.84437754,-1847719.36337359,"Coconut Creek"
"189","Coeur d'Alene ID","ID",40270,47.7,-116.78,0,-1244534.13052107,431524.539568138,"Coeur d'Alene"
"190","College Station TX","TX",80627,30.6,-96.31,0,355845.291071223,-1589402.0431312,"College Station"
"191","Colorado Springs CO","CO",375744,38.86,-104.76,0,-412460.544889352,-670613.105618805,"Colorado Springs"
"192","Colton CA","CA",53281,34.06,-117.32,0,-1589195.99202131,-1051695.07596547,"Colton"
"193","Columbia MD","MD",97772,39.2,-76.86,0,1964521.07572293,-367509.695852692,"Columbia"
"194","Columbia MO","MO",92756,38.95,-92.33,0,663030.278858583,-641819.87663163,"Columbia"
"195","Columbia SC","SC",118020,34.04,-80.89,2,1750610.63375418,-1018504.91690202,"Columbia"
"196","Columbus GA","GA",184900,32.51,-84.87,0,1418121.19310782,-1260207.6849873,"Columbus"
"197","Columbus IN","IN",39453,39.21,-85.91,0,1208299.66473577,-540631.787854865,"Columbus"
"198","Columbus OH","OH",741677,39.99,-82.99,2,1437860.89247934,-408203.849655507,"Columbus"
"199","Compton CA","CA",97338,33.89,-118.23,0,-1674757.74674402,-1052713.41872998,"Compton"
"200","Concord CA","CA",126360,37.97,-122,0,-1904494.15889607,-527522.481269145,"Concord"
"201","Concord NC","NC",61640,35.41,-80.59,0,1746131.88765009,-862845.641202405,"Concord"
"202","Concord NH","NH",42967,43.23,-71.56,2,2246147.23089717,202542.719313226,"Concord"
"203","Conroe TX","TX",42545,30.32,-95.47,0,438162.948339368,-1616414.61039825,"Conroe"
"204","Conway AR","AR",53297,35.09,-92.45,0,688391.752586473,-1069843.62019013,"Conway"
"205","Coon Rapids MN","MN",62711,45.17,-93.31,0,523703.57486736,40563.1987561382,"Coon Rapids"
"206","Coppell TX","TX",40487,32.96,-96.99,0,282313.155857036,-1331356.16862773,"Coppell"
"207","Coral Gables FL","FL",42495,25.7,-80.26,0,1986005.94583584,-1912467.96907655,"Coral Gables"
"208","Coral Springs FL","FL",134773,26.27,-80.26,0,1974627.45880782,-1850613.03223757,"Coral Springs"
"209","Corona CA","CA",159198,33.87,-117.57,0,-1615624.33948996,-1067735.35717505,"Corona"
"210","Corpus Christi TX","TX",280808,27.71,-97.29,0,269791.903439393,-1911103.50161065,"Corpus Christi"
"211","Corvallis OR","OR",50932,44.57,-123.28,0,-1812482.96149318,215699.573540492,"Corvallis"
"212","Costa Mesa CA","CA",109357,33.67,-117.91,0,-1650483.71147048,-1083034.78087267,"Costa Mesa"
"213","Council Bluffs IA","IA",58834,41.24,-95.86,0,346165.352097969,-409315.744563239,"Council Bluffs"
"214","Country Club FL","FL",58321,25.95,-80.32,0,1975132.52471183,-1886695.98585832,"Country Club"
"215","Covina CA","CA",49039,34.09,-117.88,0,-1639026.94425884,-1037722.38038542,"Covina"
"216","Covington KY","KY",41896,39.04,-84.51,0,1330025.99481115,-537851.576728698,"Covington"
"217","Cranston RI","RI",83595,41.77,-71.48,0,2306888.01102858,49575.3300709073,"Cranston"
"218","Crystal Lake IL","IL",41874,42.23,-88.33,0,957088.01454666,-239656.185198498,"Crystal Lake"
"219","Culver City CA","CA",40361,34.01,-118.4,0,-1687501.07872969,-1036227.36973455,"Culver City"
"220","Cupertino CA","CA",50952,37.31,-122.05,0,-1926636.59262992,-597984.456706506,"Cupertino"
"221","Cuyahoga Falls OH","OH",52223,41.17,-81.52,0,1531558.42069039,-252572.885199429,"Cuyahoga Falls"
"222","Cypress CA","CA",47521,33.82,-118.04,0,-1659098.88737957,-1064104.37451217,"Cypress"
"223","Dale City VA","VA",62241,38.65,-77.34,0,1940711.81216142,-438435.444642045,"Dale City"
"224","Dallas TX","TX",1216543,32.79,-96.77,0,303565.189168218,-1349393.45954406,"Dallas"
"225","Daly City CA","CA",98084,37.69,-122.47,0,-1951735.63842591,-546945.88455226,"Daly City"
"226","Danbury CT","CT",79292,41.4,-73.47,0,2166142.45848735,-44860.4404436997,"Danbury"
"227","Danville CA","CA",43110,37.81,-121.97,0,-1906322.07275543,-545575.148997603,"Danville"
"228","Danville VA","VA",45382,36.58,-79.41,0,1820756.32068048,-710208.643061323,"Danville"
"229","Davenport IA","IA",96595,41.56,-90.6,0,780342.297555934,-337769.638632045,"Davenport"
"230","Davie FL","FL",84154,26.08,-80.29,0,1975489.26123138,-1871911.53153729,"Davie"
"231","Davis CA","CA",66992,38.55,-121.74,0,-1866941.66659307,-470506.124640511,"Davis"
"232","Dayton OH","OH",157607,39.78,-84.2,0,1341428.21781328,-451624.368446272,"Dayton"
"233","Daytona Beach FL","FL",64735,29.19,-81.05,0,1839272.26395001,-1550496.82951702,"Daytona Beach"
"234","DeKalb IL","IL",44223,41.93,-88.75,0,927364.928639734,-277608.533467199,"DeKalb"
"235","DeSoto TX","TX",47179,32.6,-96.86,0,295793.280298437,-1370705.86506075,"DeSoto"
"236","Dearborn Heights MI","MI",55964,42.33,-83.27,0,1363750.36948435,-156724.176569426,"Dearborn Heights"
"237","Dearborn MI","MI",94681,42.31,-83.21,0,1368998.55148978,-157908.898570192,"Dearborn"
"238","Decatur AL","AL",54717,34.57,-86.99,0,1190408.691208,-1066570.95998216,"Decatur"
"239","Decatur IL","IL",77026,39.85,-88.93,0,942481.743641395,-509333.566242168,"Decatur"
"240","Deerfield Beach FL","FL",66628,26.31,-80.12,0,1987531.83850168,-1843102.55275709,"Deerfield Beach"
"241","Delano CA","CA",45933,35.76,-119.25,0,-1723993.12690142,-827981.047483089,"Delano"
"242","Delray Beach FL","FL",66633,26.45,-80.09,0,1987627.72535841,-1827226.16252388,"Delray Beach"
"243","Deltona FL","FL",84646,28.91,-81.21,0,1829679.76657378,-1584377.22446645,"Deltona"
"244","Dennis MA","MA",39833,41.74,-70.2,0,2405877.52948361,83713.4484994081,"Dennis"
"245","Denton TX","TX",105431,33.21,-97.13,0,268363.071039579,-1304167.60113912,"Denton"
"246","Denver CO","CO",556575,39.77,-104.87,2,-416358.669888038,-569113.681295202,"Denver"
"247","Des Moines IA","IA",192050,41.58,-93.62,2,530244.548267036,-359645.340271584,"Des Moines"
"248","Des Plaines IL","IL",53601,42.03,-87.9,0,995229.272705817,-256593.682947537,"Des Plaines"
"249","Detroit MI","MI",871789,42.38,-83.1,0,1376246.51291804,-148392.250059367,"Detroit"
"250","Diamond Bar CA","CA",59433,34,-117.81,0,-1634598.09246982,-1048913.87996801,"Diamond Bar"
"251","Dothan AL","AL",62449,31.24,-85.41,0,1388994.39643875,-1408239.95099941,"Dothan"
"252","Dover DE","DE",34288,39.16,-75.53,2,2074651.46693041,-339146.058685811,"Dover"
"253","Downers Grove IL","IL",49471,41.8,-88.02,0,989069.022892933,-283419.613709866,"Downers Grove"
"254","Downey CA","CA",112762,33.94,-118.13,0,-1664688.21344376,-1049226.48315991,"Downey"
"255","Dublin CA","CA",40791,37.72,-121.91,0,-1903701.59052661,-556722.368742823,"Dublin"
"256","Dubuque IA","IA",57027,42.5,-90.69,0,761382.934808512,-234606.669175022,"Dubuque"
"257","Duluth MN","MN",84472,46.78,-92.12,0,598901.288860284,227313.096746463,"Duluth"
"258","Dundalk MD","MD",61426,39.27,-76.5,0,1991987.48441255,-351276.072853083,"Dundalk"
"259","Durham NC","NC",208426,35.98,-78.91,0,1879110.78938452,-764399.310627831,"Durham"
"260","Duxbury MA","MA",44473,42.04,-70.67,0,2358553.59441238,101650.562391219,"Duxbury"
"261","Eagan MN","MN",64393,44.82,-93.16,0,538694.30364574,2730.96537982587,"Eagan"
"262","East Brunswick NJ","NJ",48799,40.43,-74.42,0,2123824.89188367,-173954.694022463,"East Brunswick"
"263","East Hartford CT","CT",50209,41.76,-72.62,0,2219508.40048688,16625.5047203427,"East Hartford"
"264","East Lake FL","FL",47720,27.98,-82.38,0,1735096.90410848,-1709712.75883431,"East Lake"
"265","East Lansing MI","MI",48618,42.74,-84.48,0,1258231.16088873,-131241.167455948,"East Lansing"
"266","East Los Angeles CA","CA",125121,34.03,-118.17,0,-1666384.74074995,-1038606.88840815,"East Los Angeles"
"267","East Orange NJ","NJ",68064,40.77,-74.21,0,2129284.91425579,-131958.066631698,"East Orange"
"268","East Providence RI","RI",50750,41.8,-71.36,0,2314971.37177821,56196.1802042615,"East Providence"
"269","Eau Claire WI","WI",63049,44.82,-91.49,0,669672.404556705,15188.1432114089,"Eau Claire"
"270","Eden Prairie MN","MN",65076,44.85,-93.46,0,514864.444573016,4107.70883350446,"Eden Prairie"
"271","Edina MN","MN",45648,44.89,-93.36,0,522351.466280195,9184.702548336,"Edina"
"272","Edinburg TX","TX",63193,26.3,-98.16,0,185873.160663725,-2068190.63589396,"Edinburg"
"273","Edison NJ","NJ",103448,40.53,-74.37,0,2124521.49968075,-161908.560649126,"Edison"
"274","Edmond OK","OK",75061,35.67,-97.41,0,234696.097651215,-1032703.83754973,"Edmond"
"275","Edmonds WA","WA",40023,47.83,-122.37,0,-1643034.89164904,547226.336864024,"Edmonds"
"276","Egypt Lake-Leto FL","FL",49538,28.02,-82.5,0,1722739.10332492,-1707740.1140094,"Egypt Lake-Leto"
"277","El Cajon CA","CA",94767,32.8,-116.96,0,-1581413.02576023,-1196232.90380949,"El Cajon"
"278","El Mirage AZ","AZ",42234,33.6,-112.32,0,-1141806.8749146,-1182748.74860034,"El Mirage"
"279","El Monte CA","CA",127195,34.07,-118.03,0,-1652943.30991106,-1036986.29831455,"El Monte"
"280","El Paso TX","TX",603545,31.85,-106.44,0,-611600.629491874,-1436078.19282851,"El Paso"
"281","Eldersburg MD","MD",41194,39.41,-76.94,0,1951836.6246306,-346694.821489536,"Eldersburg"
"282","Elgin IL","IL",99411,42.04,-88.29,0,963274.160427918,-260155.683923525,"Elgin"
"283","Elizabeth NJ","NJ",124552,40.67,-74.19,0,2134186.73393101,-142171.21537731,"Elizabeth"
"284","Elk Grove CA","CA",99467,38.4,-121.37,0,-1840053.61486041,-495096.877416109,"Elk Grove"
"285","Elkhart IN","IN",51198,41.69,-85.97,0,1158433.11403709,-268667.948922043,"Elkhart"
"286","Ellicott City MD","MD",68337,39.27,-76.83,0,1964939.18272488,-359219.913023994,"Ellicott City"
"287","Elmhurst IL","IL",45463,41.9,-87.94,0,994031.013263911,-271419.663160432,"Elmhurst"
"288","Elyria OH","OH",55811,41.38,-82.11,0,1478758.80813111,-240483.012490913,"Elyria"
"289","Encinitas CA","CA",62273,33.05,-117.26,0,-1603974.17220623,-1163274.14602407,"Encinitas"
"290","Enid OK","OK",45935,36.41,-97.87,0,191122.277386717,-951851.699686231,"Enid"
"291","Erie PA","PA",98968,42.13,-80.09,0,1622306.53747308,-120284.210734558,"Erie"
"292","Escondido CA","CA",137823,33.14,-117.07,0,-1584844.35871001,-1156998.72515541,"Escondido"
"293","Euclid OH","OH",49602,41.59,-81.52,0,1521452.42886542,-206715.158395421,"Euclid"
"294","Eugene OR","OR",146483,44.05,-123.11,0,-1815938.88898618,155801.61709998,"Eugene"
"295","Euless TX","TX",54705,32.85,-97.08,0,274244.382633492,-1343808.29881697,"Euless"
"296","Evanston IL","IL",75419,42.05,-87.69,0,1012017.12307634,-251812.829008052,"Evanston"
"297","Evansville IN","IN",114237,37.98,-87.54,0,1089119.80541769,-698612.208318853,"Evansville"
"298","Everett WA","WA",97575,47.96,-122.2,0,-1626881.92850545,557724.180242088,"Everett"
"299","Fairfield CA","CA",107749,38.25,-122.04,0,-1900195.38828711,-496222.541191564,"Fairfield"
"300","Fairfield CT","CT",59352,41.13,-73.26,0,2191869.66613074,-68132.7401678468,"Fairfield"
"301","Fairfield OH","OH",43279,39.33,-84.54,0,1321822.47835952,-506496.21769871,"Fairfield"
"302","Fall River MA","MA",93128,41.71,-71.11,0,2337497.74956515,53820.7934543487,"Fall River"
"303","Falmouth MA","MA",90561,41.55,-70.6,0,2382629.73132049,51714.4640993297,"Falmouth"
"304","Fargo ND","ND",92396,46.88,-96.82,0,241648.933971525,213818.930486057,"Fargo"
"305","Farmington Hills MI","MI",79530,42.49,-83.38,0,1351424.83815863,-141032.350061103,"Farmington Hills"
"306","Farmington NM","NM",44278,36.75,-108.19,0,-730158.053479779,-880935.763012836,"Farmington"
"307","Fayetteville AR","AR",66288,36.07,-94.16,0,525970.454690796,-973735.777584657,"Fayetteville"
"308","Fayetteville NC","NC",124919,35.07,-78.9,0,1902908.49168791,-863123.159610413,"Fayetteville"
"309","Federal Way WA","WA",80336,47.31,-122.34,0,-1657256.61143114,490582.418070593,"Federal Way"
"310","Findlay OH","OH",40571,41.04,-83.64,0,1361714.92951148,-304233.31792299,"Findlay"
"311","Fishers IN","IN",58678,39.95,-86.02,0,1185827.13729249,-460816.656081761,"Fishers"
"312","Fitchburg MA","MA",40565,42.59,-71.82,0,2250515.68710316,127231.829012392,"Fitchburg"
"313","Flagstaff AZ","AZ",58490,35.19,-111.62,0,-1055734.7707338,-1016793.96361623,"Flagstaff"
"314","Flint MI","MI",115691,43.02,-83.69,0,1315163.3724892,-88045.3932128597,"Flint"
"315","Florence-Graham CA","CA",63012,33.97,-118.24,0,-1673958.88807734,-1043777.52705174,"Florence-Graham"
"316","Florissant MO","MO",51644,38.8,-90.32,0,837741.429541712,-640272.10208897,"Florissant"
"317","Flower Mound TX","TX",70449,33.03,-97.09,0,272704.50740604,-1323942.2935551,"Flower Mound"
"318","Folsom CA","CA",71775,38.68,-121.15,0,-1814224.70725013,-469538.041042094,"Folsom"
"319","Fond du Lac WI","WI",41787,43.77,-88.45,0,923597.960031128,-71072.2232406436,"Fond du Lac"
"320","Fontana CA","CA",178257,34.1,-117.46,0,-1601002.73241379,-1044679.26675178,"Fontana"
"321","Fort Collins CO","CO",131505,40.56,-105.07,0,-428289.310029279,-480433.76191658,"Fort Collins"
"322","Fort Lauderdale FL","FL",173597,26.14,-80.14,0,1989004.31333258,-1862005.77171498,"Fort Lauderdale"
"323","Fort Myers FL","FL",53961,26.63,-81.85,0,1811795.01068896,-1845892.52705559,"Fort Myers"
"324","Fort Smith AR","AR",82304,35.37,-94.38,0,510916.945901541,-1052561.40690622,"Fort Smith"
"325","Fort Wayne IN","IN",231147,41.07,-85.14,0,1238066.69426595,-324706.420858861,"Fort Wayne"
"326","Fort Worth TX","TX",633849,32.75,-97.34,0,250140.026320026,-1355658.11727255,"Fort Worth"
"327","Fountain Valley CA","CA",56318,33.71,-117.95,0,-1653268.9193208,-1077883.79986819,"Fountain Valley"
"328","Fountainbleau FL","FL",67124,25.77,-80.35,0,1975750.8481036,-1906904.32036386,"Fountainbleau"
"329","Framingham MA","MA",65103,42.31,-71.44,0,2289799.61520765,108146.102758113,"Framingham"
"330","Franconia VA","VA",42105,38.76,-77.15,0,1953325.14831801,-422034.348467583,"Franconia"
"331","Frankfort KY","KY",27210,38.2,-84.86,2,1316330.95377987,-635667.44078962,"Frankfort"
"332","Franklin TN","TN",51478,35.93,-86.84,0,1182684.57285188,-914852.122367254,"Franklin"
"333","Frederick MD","MD",58271,39.43,-77.42,0,1911917.62227807,-355814.172777302,"Frederick"
"334","Freeport NY","NY",43377,40.65,-73.58,0,2183136.22325367,-128153.251425526,"Freeport"
"335","Fremont CA","CA",202574,37.53,-122,0,-1916446.92745288,-575268.788620389,"Fremont"
"336","Fresno CA","CA",472517,36.78,-119.79,0,-1746869.9844137,-705542.493663236,"Fresno"
"337","Frisco TX","TX",80192,33.14,-96.81,0,298526.158921328,-1310845.518316,"Frisco"
"338","Fullerton CA","CA",137126,33.88,-117.93,0,-1647917.00322531,-1059698.80314462,"Fullerton"
"339","Gainesville FL","FL",127933,29.67,-82.34,0,1707122.20832495,-1524683.76226502,"Gainesville"
"340","Gaithersburg MD","MD",61649,39.14,-77.22,0,1936655.98244168,-382540.983485797,"Gaithersburg"
"341","Galveston TX","TX",56205,29.3,-94.81,0,507665.757163978,-1725155.35722248,"Galveston"
"342","Garden Grove CA","CA",167647,33.78,-117.96,0,-1652712.61800655,-1070040.21799554,"Garden Grove"
"343","Gardena CA","CA",61550,33.89,-118.3,0,-1681065.58012618,-1051324.45629995,"Gardena"
"344","Garland TX","TX",217609,32.91,-96.63,0,316251.259285596,-1335623.32976877,"Garland"
"345","Gary IN","IN",96950,41.6,-87.34,0,1047986.93341826,-297024.76481707,"Gary"
"346","Gastonia NC","NC",67937,35.25,-81.17,0,1698637.61188809,-892202.340373924,"Gastonia"
"347","Georgetown TX","TX",41398,30.65,-97.69,0,222687.829747295,-1588504.41331177,"Georgetown"
"348","Germantown MD","MD",66720,39.18,-77.26,0,1932216.54375517,-379150.068523749,"Germantown"
"349","Gilbert AZ","AZ",186332,33.33,-111.76,0,-1093996.65883631,-1219811.42468895,"Gilbert"
"350","Gilroy CA","CA",46107,37.01,-121.58,0,-1894649.36193226,-641365.037765362,"Gilroy"
"351","Glen Burnie MD","MD",40546,39.17,-76.6,0,1986745.33383328,-364507.303473409,"Glen Burnie"
"352","Glendale AZ","AZ",244734,33.58,-112.2,0,-1131062.43889606,-1186552.86351976,"Glendale"
"353","Glendale CA","CA",204747,34.18,-118.25,0,-1670383.55227854,-1020642.080954,"Glendale"
"354","Glendora CA","CA",51929,34.15,-117.84,0,-1634176.14375199,-1031939.7271932,"Glendora"
"355","Glenview IL","IL",47479,42.08,-87.82,0,1000947.12067993,-250103.105885257,"Glenview"
"356","Goodyear AZ","AZ",49748,33.35,-112.41,0,-1153666.06314981,-1209029.40300202,"Goodyear"
"357","Grand Forks ND","ND",48195,47.92,-97.07,0,218350.819686897,328652.877955708,"Grand Forks"
"358","Grand Island NE","NE",45052,40.92,-98.37,0,137031.015326456,-452225.41148459,"Grand Island"
"359","Grand Junction CO","CO",46350,39.09,-108.55,0,-737275.832590839,-618906.561736279,"Grand Junction"
"360","Grand Prairie TX","TX",144018,32.69,-97.02,0,280422.397752866,-1361298.11099839,"Grand Prairie"
"361","Grand Rapids MI","MI",193006,42.96,-85.66,0,1159651.22589443,-124592.136645424,"Grand Rapids"
"362","Grapevine TX","TX",51334,32.93,-97.07,0,274914.349345861,-1334933.07829283,"Grapevine"
"363","Great Falls MT","MT",55908,47.5,-111.29,0,-844807.616012482,337656.359372886,"Great Falls"
"364","Greater Carrollwood FL","FL",42586,28.07,-82.52,0,1719883.23800811,-1702687.65046342,"Greater Carrollwood"
"365","Greeley CO","CO",88957,40.42,-104.74,0,-401307.781600812,-497627.286248061,"Greeley"
"366","Green Bay WI","WI",100616,44.52,-87.99,0,947853.286063606,16982.2626652916,"Green Bay"
"367","Greensboro NC","NC",233342,36.08,-79.83,0,1796714.82810254,-773746.642901422,"Greensboro"
"368","Greenville NC","NC",72617,35.6,-77.37,0,2022641.43178955,-769713.991443885,"Greenville"
"369","Greenville SC","SC",55421,34.84,-82.37,0,1600980.95360934,-960534.103072203,"Greenville"
"370","Greenwich CT","CT",64100,41.04,-73.59,0,2169081.78481749,-86624.554182086,"Greenwich"
"371","Greenwood IN","IN",42298,39.62,-86.11,0,1184126.83007104,-498417.228323289,"Greenwood"
"372","Gresham OR","OR",100674,45.5,-122.44,0,-1720785.64917793,297496.534507976,"Gresham"
"373","Gulfport MS","MS",71400,30.39,-89.07,0,1053518.17615883,-1553462.78479085,"Gulfport"
"374","Hacienda Heights CA","CA",54439,34,-117.97,0,-1649012.68662716,-1045806.76927701,"Hacienda Heights"
"375","Hackensack NJ","NJ",43923,40.89,-74.05,0,2137931.31726737,-114885.577415634,"Hackensack"
"376","Haltom City TX","TX",42053,32.82,-97.27,0,256501.219051226,-1347713.5864114,"Haltom City"
"377","Hamden CT","CT",60388,41.37,-72.89,0,2212387.42027149,-32423.5802998343,"Hamden"
"378","Hamilton NJ","NJ",91245,40.09,-74.39,0,2137342.30609127,-209708.896502817,"Hamilton"
"379","Hamilton OH","OH",61527,39.39,-84.56,0,1318963.64769272,-500228.557583794,"Hamilton"
"380","Hammond IN","IN",78051,41.62,-87.49,0,1035363.08066144,-296725.840658217,"Hammond"
"381","Hampton VA","VA",148201,37.05,-76.29,0,2074524.37766772,-586130.217043112,"Hampton"
"382","Hanford CA","CA",48892,36.33,-119.65,0,-1745527.59472368,-757524.905021462,"Hanford"
"383","Harlingen TX","TX",64198,26.2,-97.69,0,233574.413740593,-2078044.1991113,"Harlingen"
"384","Harrisburg PA","PA",47576,40.28,-76.88,2,1931162.03383519,-251167.32304812,"Harrisburg"
"385","Harrisonburg VA","VA",41992,38.44,-78.87,0,1818893.94412282,-496062.465109376,"Harrisonburg"
"386","Hartford CT","CT",123836,41.77,-72.68,2,2214518.44674743,16050.6248768637,"Hartford"
"387","Hattiesburg MS","MS",48728,31.31,-89.31,0,1019645.95079702,-1455237.22608048,"Hattiesburg"
"388","Haverhill MA","MA",61928,42.78,-71.09,0,2298500.76107479,168036.406671246,"Haverhill"
"389","Hawthorne CA","CA",87677,33.91,-118.35,0,-1685142.94380002,-1048145.02317831,"Hawthorne"
"390","Hayward CA","CA",140704,37.63,-122.1,0,-1922182.09478793,-562102.866352548,"Hayward"
"391","Helena MT","MT",27383,46.6,-112.03,2,-914894.315153473,246548.685875471,"Helena"
"392","Hemet CA","CA",71300,33.73,-117,0,-1566858.06564387,-1093760.31037085,"Hemet"
"393","Hempstead NY","NY",52769,40.7,-73.62,0,2178279.88221213,-123864.886262968,"Hempstead"
"394","Henderson NV","NV",255646,36.03,-115,0,-1344209.55113735,-876183.87171749,"Henderson"
"395","Hendersonville TN","TN",45358,36.29,-86.6,0,1198207.74068488,-871842.106609637,"Hendersonville"
"396","Hesperia CA","CA",75966,34.42,-117.3,0,-1580098.79926537,-1012693.43321135,"Hesperia"
"397","Hialeah FL","FL",224644,25.86,-80.3,0,1978888.97053272,-1896011.54120072,"Hialeah"
"398","Hickory NC","NC",40968,35.74,-81.33,0,1673571.63944114,-841920.944664034,"Hickory"
"399","Hicksville NY","NY",41452,40.76,-73.53,0,2183345.02451469,-115023.514289365,"Hicksville"
"400","High Point NC","NC",96011,35.98,-80,0,1784336.52226089,-788280.220372433,"High Point"
"401","Highland CA","CA",52692,34.12,-117.19,0,-1576265.33422988,-1047565.63465955,"Highland"
"402","Highlands Ranch CO","CO",109009,39.55,-104.97,0,-426289.177827309,-593013.286954081,"Highlands Ranch"
"403","Hillsboro OR","OR",85046,45.53,-122.94,0,-1756884.0869081,311591.309396441,"Hillsboro"
"404","Hingham MA","MA",41654,42.24,-70.89,0,2334204.90167933,116473.925202715,"Hingham"
"405","Hoboken NJ","NJ",39972,40.74,-74.03,0,2144525.34958621,-130455.985970618,"Hoboken"
"406","Hoffman Estates IL","IL",50674,42.06,-88.14,0,975194.223951762,-256172.681682712,"Hoffman Estates"
"407","Hollywood FL","FL",145877,26.03,-80.16,0,1989254.19813707,-1874396.37271365,"Hollywood"
"408","Holyoke MA","MA",40143,42.21,-72.64,0,2201872.051352,64118.1457269352,"Holyoke"
"409","Hoover AL","AL",67576,33.38,-86.82,0,1224109.08212864,-1194971.31032797,"Hoover"
"410","Houston TX","TX",2043005,29.77,-95.39,0,448658.763471442,-1676600.66776796,"Houston"
"411","Huntersville NC","NC",43970,35.41,-80.86,0,1722364.42736784,-868425.838768671,"Huntersville"
"412","Huntington Beach CA","CA",197124,33.69,-118.01,0,-1659111.16180292,-1078895.0667492,"Huntington Beach"
"413","Huntington Park CA","CA",64308,33.98,-118.22,0,-1671945.876268,-1043081.08798592,"Huntington Park"
"414","Huntington WV","WV",47905,38.41,-82.43,0,1519383.15008658,-571132.729897563,"Huntington"
"415","Huntsville AL","AL",169155,34.71,-86.63,0,1220808.62017341,-1046043.74174973,"Huntsville"
"416","Hutchinson KS","KS",40386,38.07,-97.91,0,183268.081175582,-767818.608004598,"Hutchinson"
"417","Idaho Falls ID","ID",52431,43.49,-112.03,0,-966169.825583924,-96387.8900585969,"Idaho Falls"
"418","Independence MO","MO",110124,39.09,-94.35,0,487805.526027301,-640289.079557274,"Independence"
"419","Indianapolis IN","IN",771725,39.78,-86.15,2,1177934.46852101,-481383.032293644,"Indianapolis"
"420","Indio CA","CA",69736,33.72,-116.23,0,-1497167.69451792,-1108777.38385878,"Indio"
"421","Inglewood CA","CA",116797,33.96,-118.34,0,-1683173.8537339,-1042883.9567662,"Inglewood"
"422","Iowa City IA","IA",64490,41.66,-91.54,0,701562.064304899,-335182.605353525,"Iowa City"
"423","Irondequoit NY","NY",51825,43.21,-77.57,0,1789495.68720056,49893.1011725139,"Irondequoit"
"424","Irvine CA","CA",199755,33.66,-117.8,0,-1640736.98221027,-1086265.27223651,"Irvine"
"425","Irving TX","TX",194407,32.86,-96.97,0,284535.586128554,-1342343.77641474,"Irving"
"426","Irvington NJ","NJ",61373,40.72,-74.23,0,2129359.71235271,-137849.231228174,"Irvington"
"427","Jackson MS","MS",175085,32.32,-90.21,2,923145.91431469,-1354280.45391731,"Jackson"
"428","Jackson TN","TN",62552,35.63,-88.83,0,1009280.04011222,-973811.624397819,"Jackson"
"429","Jacksonville FL","FL",809874,30.33,-81.66,0,1758476.90804432,-1439023.21198704,"Jacksonville"
"430","Jacksonville NC","NC",68201,34.76,-77.4,0,2042581.56797632,-861519.344322562,"Jacksonville"
"431","Janesville WI","WI",61952,42.68,-89.02,0,894391.038192938,-197785.942866383,"Janesville"
"432","Jefferson City MO","MO",39062,38.57,-92.19,2,678820.867257495,-682763.60370514,"Jefferson City"
"433","Jersey City NJ","NJ",237125,40.71,-74.06,0,2143152.85763649,-134465.082579969,"Jersey City"
"434","Johnson City TN","TN",59183,36.33,-82.37,0,1569557.07174534,-797574.996729495,"Johnson City"
"435","Joliet IL","IL",141246,41.53,-88.12,0,985086.873886939,-314412.296815,"Joliet"
"436","Jonesboro AR","AR",59233,35.82,-90.69,0,840019.285873271,-973256.045391444,"Jonesboro"
"437","Joplin MO","MO",47060,37.08,-94.5,0,488644.379306916,-863940.380372573,"Joplin"
"438","Jupiter FL","FL",51126,26.92,-80.1,0,1977062.22479692,-1776430.65799968,"Jupiter"
"439","Kalamazoo MI","MI",73504,42.27,-85.59,0,1178423.95827785,-199450.36973245,"Kalamazoo"
"440","Kansas City KS","KS",143402,39.12,-94.73,0,454853.855790576,-639117.161626904,"Kansas City"
"441","Kansas City MO","MO",441833,39.12,-94.55,0,470362.558458604,-638115.30613191,"Kansas City"
"442","Keller TX","TX",39928,32.93,-97.23,0,259908.581427152,-1335433.28838924,"Keller"
"443","Kendale Lakes FL","FL",62715,25.71,-80.41,0,1971022.60140889,-1914763.91121003,"Kendale Lakes"
"444","Kendall FL","FL",84549,25.67,-80.34,0,1978713.69666874,-1917529.36603582,"Kendall"
"445","Kenner LA","LA",69514,29.99,-90.25,0,944672.889005776,-1611050.57205936,"Kenner"
"446","Kennewick WA","WA",63593,46.2,-119.17,0,-1458010.08637862,308443.838554922,"Kennewick"
"447","Kenosha WI","WI",94673,42.58,-87.85,0,990474.049020022,-195320.94924679,"Kenosha"
"448","Kent WA","WA",82896,47.39,-122.24,0,-1647584.27853446,497125.343030934,"Kent"
"449","Kentwood MI","MI",47421,42.88,-85.59,0,1166773.61215492,-132387.442738504,"Kentwood"
"450","Kettering OH","OH",55473,39.7,-84.15,0,1347223.41988486,-459587.51869649,"Kettering"
"451","Killeen TX","TX",106441,31.1,-97.72,0,218660.322909826,-1538932.02025697,"Killeen"
"452","Kingsport TN","TN",43776,36.53,-82.56,0,1548717.5917012,-779236.287257945,"Kingsport"
"453","Kirkland WA","WA",45913,47.68,-122.19,0,-1634946.23614339,527347.869413908,"Kirkland"
"454","Kissimmee FL","FL",67085,28.3,-81.41,0,1822623.89872606,-1655000.81329695,"Kissimmee"
"455","Knoxville TN","TN",172000,35.97,-83.95,0,1438097.80562028,-865360.438606241,"Knoxville"
"456","Kokomo IN","IN",46130,40.48,-86.13,0,1167175.5502688,-404069.278745546,"Kokomo"
"457","La Crosse WI","WI",50147,43.83,-91.23,0,701831.985949207,-92234.9519756143,"La Crosse"
"458","La Habra CA","CA",59799,33.93,-117.95,0,-1648676.06173643,-1053845.56477215,"La Habra"
"459","La Mesa CA","CA",53942,32.77,-117.02,0,-1587500.26347238,-1198396.34709519,"La Mesa"
"460","La Mirada CA","CA",50598,33.9,-118.01,0,-1654714.24271062,-1055951.65606971,"La Mirada"
"461","La Puente CA","CA",42901,34.03,-117.95,0,-1646582.97783411,-1042918.52096126,"La Puente"
"462","La Quinta CA","CA",41239,33.67,-116.29,0,-1503564.65181623,-1113190.95729805,"La Quinta"
"463","Lafayette IN","IN",62589,40.41,-86.87,0,1106760.06225614,-421990.758388858,"Lafayette"
"464","Lafayette LA","LA",112317,30.22,-92.03,0,770868.36701075,-1603398.95328627,"Lafayette"
"465","Laguna CA","CA",49714,38.42,-121.42,0,-1843705.59241462,-491809.912286681,"Laguna"
"466","Laguna Niguel CA","CA",67009,33.53,-117.7,0,-1634350.95111467,-1102405.73784558,"Laguna Niguel"
"467","Lake Charles LA","LA",69910,30.21,-93.2,0,658087.852533307,-1614158.8925514,"Lake Charles"
"468","Lake Elsinore CA","CA",43336,33.67,-117.32,0,-1597058.61280424,-1094346.99854516,"Lake Elsinore"
"469","Lake Forest CA","CA",76859,33.63,-117.7,0,-1632300.3178749,-1091476.2941583,"Lake Forest"
"470","Lake Havasu City AZ","AZ",57685,34.5,-114.31,0,-1309206.35627472,-1055053.78476202,"Lake Havasu City"
"471","Lake Magdalene FL","FL",40413,28.07,-82.47,0,1724721.83089344,-1701697.17964856,"Lake Magdalene"
"472","Lakeland FL","FL",92011,28.04,-81.96,0,1774604.72802651,-1694700.30669232,"Lakeland"
"473","Lakeville MN","MN",52745,44.68,-93.24,0,533705.909847646,-13324.7202033758,"Lakeville"
"474","Lakewood CA","CA",82632,33.85,-118.12,0,-1665686.22176411,-1059254.95215078,"Lakewood"
"475","Lakewood CO","CO",140154,39.7,-105.11,0,-437302.32162678,-575643.928376967,"Lakewood"
"476","Lakewood NJ","NJ",43436,40.09,-74.21,0,2151748.12160005,-204984.240162371,"Lakewood"
"477","Lakewood OH","OH",51999,41.48,-81.8,0,1501490.38311537,-223906.834024923,"Lakewood"
"478","Lakewood WA","WA",58995,47.16,-122.53,0,-1675615.99086685,478403.230868723,"Lakewood"
"479","Lancaster CA","CA",131779,34.69,-118.18,0,-1653207.80641354,-966307.485154214,"Lancaster"
"480","Lancaster PA","PA",54390,40.04,-76.3,0,1985214.55942005,-263230.520676566,"Lancaster"
"481","Lansing MI","MI",117236,42.71,-84.55,2,1253256.47315305,-135612.623538144,"Lansing"
"482","Laredo TX","TX",218041,27.53,-99.49,0,50877.8949654533,-1934910.37043606,"Laredo"
"483","Largo FL","FL",71688,27.91,-82.78,0,1697606.39709723,-1725231.62209985,"Largo"
"484","Las Cruces NM","NM",81473,32.34,-106.76,0,-638168.94442712,-1379692.81799545,"Las Cruces"
"485","Las Vegas NV","NV",553807,36.21,-115.22,0,-1360354.25992902,-852878.18575768,"Las Vegas"
"486","Lauderhill FL","FL",60308,26.17,-80.23,0,1979575.04072222,-1860789.2636667,"Lauderhill"
"487","Lawrence IN","IN",42451,39.87,-85.99,0,1189773.08706544,-469186.554244332,"Lawrence"
"488","Lawrence KS","KS",83948,38.96,-95.26,0,410132.278756697,-659619.997498172,"Lawrence"
"489","Lawrence MA","MA",72669,42.7,-71.16,0,2296275.44198199,157546.72831577,"Lawrence"
"490","Lawton OK","OK",91453,34.6,-98.42,0,145202.43498596,-1153488.4531335,"Lawton"
"491","Layton UT","UT",63096,41.08,-111.95,0,-997849.074011029,-363215.546349906,"Layton"
"492","League City TX","TX",65696,29.49,-95.11,0,477357.863440078,-1705940.37742995,"League City"
"493","Lee's Summit MO","MO",83837,38.92,-94.38,0,486426.356458366,-659313.718791553,"Lee's Summit"
"494","Lehigh Acres FL","FL",52474,26.6,-81.63,0,1833930.91017981,-1844571.73090553,"Lehigh Acres"
"495","Lenexa KS","KS",43935,38.96,-94.79,0,450736.573422374,-657187.91270386,"Lenexa"
"496","Leominster MA","MA",42479,42.52,-71.77,0,2256906.41066881,121180.861056969,"Leominster"
"497","Levittown NY","NY",52390,40.72,-73.51,0,2186284.9374976,-118773.1325656,"Levittown"
"498","Levittown PA","PA",52889,40.15,-74.85,0,2098543.76041323,-215178.792232032,"Levittown"
"499","Lewisville TX","TX",97496,33.04,-96.98,0,282973.050244518,-1322479.2832988,"Lewisville"
"500","Lexington KY","KY",274245,38.04,-84.46,0,1353706.91214664,-646810.541906525,"Lexington"
"501","Lima OH","OH",39543,40.74,-84.11,0,1329381.9170762,-344836.568173612,"Lima"
"502","Lincoln CA","CA",40805,38.89,-121.3,0,-1821131.03882626,-443415.339857585,"Lincoln"
"503","Lincoln NE","NE",245301,40.82,-96.69,2,278624.550514297,-459102.918839775,"Lincoln"
"504","Linden NJ","NJ",39964,40.63,-74.24,0,2131547.30838357,-147774.734701503,"Linden"
"505","Little Rock AR","AR",184323,34.72,-92.35,2,700833.447852346,-1109909.30272982,"Little Rock"
"506","Littleton CO","CO",41063,39.59,-105.01,0,-429459.842213027,-588369.502405139,"Littleton"
"507","Livermore CA","CA",81787,37.69,-121.76,0,-1891845.28741992,-563413.953729211,"Livermore"
"508","Livonia MI","MI",97722,42.4,-83.37,0,1354202.63330653,-150724.394585471,"Livonia"
"509","Lodi CA","CA",64068,38.12,-121.29,0,-1840771.9007193,-527299.474878418,"Lodi"
"510","Logan UT","UT",45262,41.74,-111.84,0,-978543.136505365,-291720.099040945,"Logan"
"511","Lombard IL","IL",42917,41.87,-88.01,0,988785.343790862,-275576.395348709,"Lombard"
"512","Lompoc CA","CA",40924,34.66,-120.47,0,-1857419.46260255,-921828.644940303,"Lompoc"
"513","Long Beach CA","CA",486571,33.79,-118.16,0,-1670561.20429994,-1065020.2972448,"Long Beach"
"514","Longmont CO","CO",85988,40.17,-105.11,0,-434229.005108211,-523499.983528271,"Longmont"
"515","Longview TX","TX",76372,32.52,-94.76,0,493853.006764508,-1369864.71409876,"Longview"
"516","Lorain OH","OH",67692,41.44,-82.18,0,1471693.5952796,-235186.571748985,"Lorain"
"517","Los Angeles CA","CA",3911500,34.11,-118.41,0,-1686251.0599969,-1025107.71970978,"Los Angeles"
"518","Louisville KY","KY",241072,38.22,-85.74,0,1240421.19652676,-647001.769605254,"Louisville"
"519","Loveland CO","CO",61578,40.42,-105.07,0,-429204.872004695,-495969.104493995,"Loveland"
"520","Lowell MA","MA",103085,42.64,-71.32,0,2286477.06230338,146622.639993039,"Lowell"
"521","Lower Merion PA","PA",60579,40.03,-75.28,0,2067816.52837509,-239053.354536585,"Lower Merion"
"522","Lubbock TX","TX",213587,33.58,-101.88,0,-175010.585501352,-1265815.59818806,"Lubbock"
"523","Lynchburg VA","VA",65485,37.4,-79.19,0,1818874.3302787,-616174.563388333,"Lynchburg"
"524","Lynn MA","MA",89786,42.47,-70.96,0,2320131.35683711,138863.475530595,"Lynn"
"525","Lynwood CA","CA",72890,33.92,-118.2,0,-1671418.08431239,-1050030.22674935,"Lynwood"
"526","MacAllen TX","TX",125985,26.22,-98.24,0,177936.076187512,-2077131.56168228,"MacAllen"
"527","MacKinney TX","TX",108976,33.2,-96.65,0,313258.511801385,-1303639.17311194,"MacKinney"
"528","MacLean VA","VA",39731,38.94,-77.18,0,1945689.31770861,-403253.825842471,"MacLean"
"529","Macon GA","GA",93755,32.84,-83.66,0,1523741.34269694,-1203170.14563923,"Macon"
"530","Madera CA","CA",53222,36.97,-120.08,0,-1767209.83902124,-678723.52444857,"Madera"
"531","Madison AL","AL",39516,34.7,-86.75,0,1210118.68931974,-1048868.7226279,"Madison"
"532","Madison WI","WI",227642,43.08,-89.39,2,858812.739498043,-157568.734770508,"Madison"
"533","Malden MA","MA",55066,42.43,-71.06,0,2314091.45593054,131742.45430969,"Malden"
"534","Manchester NH","NH",110384,42.98,-71.44,0,2264590.72488533,179349.497140532,"Manchester"
"535","Manhattan KS","KS",45671,39.19,-96.59,0,294157.033096814,-639731.098233876,"Manhattan"
"536","Mansfield OH","OH",50010,40.76,-82.53,0,1458753.76230065,-315815.442145293,"Mansfield"
"537","Manteca CA","CA",69588,37.8,-121.22,0,-1843296.61816536,-563632.407378126,"Manteca"
"538","Maple Grove MN","MN",62021,45.11,-93.46,0,512532.874495384,32947.7358081686,"Maple Grove"
"539","Margate FL","FL",55844,26.25,-80.21,0,1979928.21235066,-1851654.4029248,"Margate"
"540","Marietta GA","GA",61946,33.95,-84.54,0,1422989.89913437,-1096842.63532185,"Marietta"
"541","Marshfield MA","MA",60784,42.09,-70.71,0,2353599.23251528,105787.001252169,"Marshfield"
"542","Medford MA","MA",53579,42.42,-71.11,0,2310686.29836791,129246.340799945,"Medford"
"543","Medford OR","OR",70717,42.34,-122.85,0,-1848226.58403661,-34724.1754438587,"Medford"
"544","Melbourne FL","FL",77320,28.11,-80.64,0,1900503.69459751,-1659155.4466388,"Melbourne"
"545","Memphis TN","TN",639736,35.11,-90.01,0,909511.152624872,-1044577.60751251,"Memphis"
"546","Mentor OH","OH",49597,41.69,-81.33,0,1534318.79300581,-192245.11367943,"Mentor"
"547","Merced CA","CA",74415,37.3,-120.48,0,-1793273.24819609,-634229.211435991,"Merced"
"548","Meriden CT","CT",59558,41.54,-72.8,0,2213389.08828038,-11798.2512690791,"Meriden"
"549","Meridian ID","ID",48376,43.61,-116.4,0,-1309354.64648024,-21950.8883977401,"Meridian"
"550","Mesa AZ","AZ",461167,33.42,-111.74,0,-1090929.74163604,-1210164.80264512,"Mesa"
"551","Mesquite TX","TX",132746,32.77,-96.6,0,319610.087834891,-1350984.94060912,"Mesquite"
"552","Metairie LA","LA",141606,30,-90.18,0,951312.716722672,-1609184.96635113,"Metairie"
"553","Methuen MA","MA",45666,42.73,-71.19,0,2292874.45642954,159876.965853823,"Methuen"
"554","Miami Beach FL","FL",89531,25.81,-80.14,0,1995630.6883304,-1897811.55408849,"Miami Beach"
"555","Miami FL","FL",386740,25.78,-80.21,0,1989339.82905433,-1902656.1012758,"Miami"
"556","Middletown CT","CT",51189,41.55,-72.65,0,2224665.49117026,-6623.56924008888,"Middletown"
"557","Middletown OH","OH",53027,39.51,-84.37,0,1332577.5572889,-484007.690178442,"Middletown"
"558","Midland MI","MI",42516,43.62,-84.23,0,1259651.05352543,-30831.5859729563,"Midland"
"559","Midland TX","TX",98261,32.03,-102.1,0,-199212.778089398,-1436685.19158772,"Midland"
"560","Midwest City OK","OK",55090,35.46,-97.37,0,238980.929634813,-1055856.92479789,"Midwest City"
"561","Milford CT","CT",51360,41.23,-73.06,0,2204035.6465492,-52019.8725136831,"Milford"
"562","Milpitas CA","CA",62671,37.43,-121.89,0,-1909832.38769017,-588659.264119088,"Milpitas"
"563","Milwaukee WI","WI",575250,43.06,-87.97,0,973095.943341226,-143819.861563264,"Milwaukee"
"564","Minneapolis MN","MN",364726,44.96,-93.27,0,528765.821511019,17532.5604176801,"Minneapolis"
"565","Minnetonka MN","MN",49918,44.93,-93.46,0,514147.881905814,12981.6179047622,"Minnetonka"
"566","Miramar FL","FL",123116,25.98,-80.33,0,1973552.81884542,-1883665.49101327,"Miramar"
"567","Mishawaka IN","IN",49534,41.67,-86.17,0,1142478.22087673,-273677.844373888,"Mishawaka"
"568","Mission TX","TX",65215,26.21,-98.32,0,169866.336521001,-2078386.0201863,"Mission"
"569","Mission Viejo CA","CA",97001,33.61,-117.65,0,-1628180.51701451,-1094624.5908205,"Mission Viejo"
"570","Missoula MT","MT",64391,46.87,-114.01,0,-1058398.65035803,300635.300108298,"Missoula"
"571","Missouri City TX","TX",73529,29.57,-95.54,0,435043.022574078,-1699389.52615988,"Missouri City"
"572","Mobile AL","AL",188467,30.68,-88.09,0,1143475.25677233,-1509134.79180449,"Mobile"
"573","Modesto CA","CA",221674,37.66,-120.99,0,-1827476.44843308,-583943.303564726,"Modesto"
"574","Moline IL","IL",42427,41.49,-90.49,0,790294.280183818,-344462.095009905,"Moline"
"575","Monroe LA","LA",51292,32.51,-92.08,0,745791.811914406,-1351568.32164334,"Monroe"
"576","Montclair NJ","NJ",39801,40.82,-74.21,0,2127624.89473974,-126590.01387036,"Montclair"
"577","Montebello CA","CA",64727,34.02,-118.11,0,-1661196.95340856,-1040880.43758737,"Montebello"
"578","Monterey Park CA","CA",63766,34.05,-118.13,0,-1662362.23635615,-1037209.83449671,"Monterey Park"
"579","Montgomery AL","AL",197653,32.35,-86.28,2,1289926.66639037,-1300122.53947479,"Montgomery"
"580","Montgomery Village MD","MD",42453,39.18,-77.19,0,1937976.03720715,-377503.470855956,"Montgomery Village"
"581","Montpelier VT","VT",8003,44.26,-72.57,2,2132529.55460266,284530.535274894,"Montpelier"
"582","Moore OK","OK",48749,35.33,-97.47,0,230290.54110589,-1070534.97980557,"Moore"
"583","Moreno Valley CA","CA",174068,33.93,-117.21,0,-1581884.31957348,-1067976.06173567,"Moreno Valley"
"584","Mount Pleasant SC","SC",61690,32.82,-79.86,0,1871211.89378303,-1129424.3297041,"Mount Pleasant"
"585","Mount Prospect IL","IL",55100,42.07,-87.94,0,991333.684403014,-252666.776613172,"Mount Prospect"
"586","Mount Vernon NY","NY",68048,40.91,-73.83,0,2154609.34743466,-106938.540640624,"Mount Vernon"
"587","Mountain View CA","CA",67788,37.4,-122.08,0,-1926742.23019241,-587522.055374061,"Mountain View"
"588","Muncie IN","IN",64771,40.2,-85.39,0,1233913.25923346,-424080.093932161,"Muncie"
"589","Murfreesboro TN","TN",88161,35.85,-86.39,0,1224007.70541977,-917211.202645328,"Murfreesboro"
"590","Murray UT","UT",56848,40.65,-111.89,0,-999505.119363552,-411383.867209878,"Murray"
"591","Murrieta CA","CA",97999,33.56,-117.21,0,-1589282.02395973,-1108445.04600232,"Murrieta"
"592","Muskegon MI","MI",40058,43.23,-86.26,0,1106763.87301963,-103247.418592913,"Muskegon"
"593","Nampa ID","ID",77893,43.58,-116.56,0,-1322575.41257052,-22640.3809804843,"Nampa"
"594","Napa CA","CA",77884,38.3,-122.3,0,-1920555.9140254,-484789.031082988,"Napa"
"595","Naperville IL","IL",147178,41.76,-88.15,0,979051.640010105,-289393.866865722,"Naperville"
"596","Nashua NH","NH",87113,42.75,-71.49,0,2269497.07187492,153502.837276456,"Nashua"
"597","Nashville TN","TN",523547,36.17,-86.78,2,1184195.98935308,-887599.299621363,"Nashville"
"598","National City CA","CA",64065,32.67,-117.1,0,-1596792.62430849,-1207834.54185406,"National City"
"599","New Bedford MA","MA",94039,41.66,-70.94,0,2352407.17147822,53438.5133697458,"New Bedford"
"600","New Braunfels TX","TX",47533,29.7,-98.12,0,183197.459965372,-1694248.60488767,"New Braunfels"
"601","New Britain CT","CT",71362,41.68,-72.79,0,2209210.34055231,3433.28856999571,"New Britain"
"602","New Brunswick NJ","NJ",51044,40.49,-74.45,0,2119470.51345969,-168287.589120986,"New Brunswick"
"603","New Haven CT","CT",125030,41.31,-72.92,0,2212157.9893039,-39656.1285021563,"New Haven"
"604","New Milford CT","CT",58524,41.58,-73.41,0,2164606.63380319,-23987.7559095052,"New Milford"
"605","New Orleans LA","LA",454207,30.07,-89.93,0,974630.763246495,-1598710.76752538,"New Orleans"
"606","New Rochelle NY","NY",72865,40.92,-73.78,0,2158211.1107579,-104541.195815098,"New Rochelle"
"607","New York NY","NY",8124427,40.67,-73.94,0,2153988.06901241,-135592.555455068,"New York"
"608","Newark CA","CA",43018,37.52,-122.03,0,-1919255.5436942,-575660.12643045,"Newark"
"609","Newark NJ","NJ",281378,40.72,-74.17,0,2134111.48469487,-136279.334325013,"Newark"
"610","Newark OH","OH",46870,40.07,-82.42,0,1483353.11017045,-389334.635017211,"Newark"
"611","Newport Beach CA","CA",79305,33.61,-117.87,0,-1648108.13191395,-1090369.86190253,"Newport Beach"
"612","Newport News VA","VA",183941,37.08,-76.51,0,2055051.67711055,-588360.327628841,"Newport News"
"613","Newton MA","MA",84969,42.33,-71.21,0,2306513.47863924,116824.231690793,"Newton"
"614","Niagara Falls NY","NY",52509,43.09,-79.02,0,1680514.14128476,5810.2824039616,"Niagara Falls"
"615","Norfolk VA","VA",248182,36.92,-76.24,0,2082520.52369646,-598935.422122966,"Norfolk"
"616","Normal IL","IL",52497,40.52,-89,0,927108.982528857,-436138.493996288,"Normal"
"617","Norman OK","OK",102925,35.23,-97.34,0,242436.176431678,-1081248.26590626,"Norman"
"618","North Atlanta GA","GA",45739,33.86,-84.33,0,1443693.26543825,-1103155.56393551,"North Atlanta"
"619","North Bergen NJ","NJ",64575,40.79,-74.03,0,2142854.59003752,-125090.470550489,"North Bergen"
"620","North Bethesda MD","MD",45600,39.04,-77.12,0,1947766.68283489,-391007.982520191,"North Bethesda"
"621","North Brunswick Township NJ","NJ",39567,40.45,-74.48,0,2118391.15160693,-173365.267164859,"North Brunswick Township"
"622","North Charleston SC","SC",83247,32.91,-80.04,0,1852811.38556998,-1123575.10007093,"North Charleston"
"623","North Fort Myers FL","FL",47790,26.71,-81.89,0,1806386.75971022,-1838018.28459906,"North Fort Myers"
"624","North Highlands CA","CA",46156,38.67,-121.38,0,-1833679.02850187,-465543.323208934,"North Highlands"
"625","North Las Vegas NV","NV",177751,36.27,-115.14,0,-1352201.52798284,-847586.037184733,"North Las Vegas"
"626","North Little Rock AR","AR",58771,34.79,-92.26,0,708410.017974077,-1101426.84651888,"North Little Rock"
"627","North Miami Beach FL","FL",39551,25.93,-80.17,0,1990277.4634897,-1885473.97115172,"North Miami Beach"
"628","North Miami FL","FL",58238,25.9,-80.17,0,1990878.24100267,-1888728.98781767,"North Miami"
"629","North Port FL","FL",41919,27.05,-82.19,0,1770739.33029212,-1807162.57002985,"North Port"
"630","North Richland Hills TX","TX",64317,32.86,-97.22,0,261069.634784688,-1343140.85776744,"North Richland Hills"
"631","Norwalk CA","CA",110002,33.91,-118.08,0,-1660815.11884122,-1053486.98570339,"Norwalk"
"632","Norwalk CT","CT",84801,41.09,-73.42,0,2180711.6421317,-76720.1594229079,"Norwalk"
"633","Novato CA","CA",49005,38.09,-122.56,0,-1948151.20687065,-501468.268553851,"Novato"
"634","Novi MI","MI",55079,42.48,-83.49,0,1342851.69618262,-143946.315687251,"Novi"
"635","O'Fallon MO","MO",79091,38.78,-90.71,0,804400.628051046,-646335.174228977,"O'Fallon"
"636","Oak Lawn IL","IL",54638,41.72,-87.75,0,1012441.29857359,-288946.795943987,"Oak Lawn"
"637","Oak Park IL","IL",48922,41.89,-87.79,0,1006441.81756434,-270690.790535472,"Oak Park"
"638","Oakland CA","CA",393632,37.77,-122.22,0,-1928473.31397168,-544127.064546726,"Oakland"
"639","Ocala FL","FL",50241,29.19,-82.13,0,1736324.58247578,-1572839.84280157,"Ocala"
"640","Oceanside CA","CA",172251,33.23,-117.31,0,-1604957.97960469,-1142648.61324888,"Oceanside"
"641","Odessa TX","TX",91246,31.87,-102.35,0,-223346.025390012,-1453743.34433686,"Odessa"
"642","Ogden UT","UT",78572,41.23,-111.97,0,-997169.244001625,-346424.367553723,"Ogden"
"643","Oklahoma City OK","OK",538141,35.47,-97.51,2,226234.383961967,-1055134.31566139,"Oklahoma City"
"644","Olathe KS","KS",118165,38.89,-94.81,0,449467.172030578,-665058.909557624,"Olathe"
"645","Olympia WA","WA",45403,47.04,-122.89,2,-1705311.0577415,473134.318224717,"Olympia"
"646","Omaha NE","NE",417809,41.26,-96.01,0,333531.489876249,-407713.942407186,"Omaha"
"647","Ontario CA","CA",175805,34.05,-117.61,0,-1615542.20520289,-1047292.59146271,"Ontario"
"648","Orange CA","CA",134868,33.81,-117.82,0,-1639442.56232849,-1069485.26241581,"Orange"
"649","Orem UT","UT",94758,40.3,-111.7,0,-988943.067744466,-452293.894342574,"Orem"
"650","Orland Park IL","IL",56731,41.61,-87.85,0,1006002.60660291,-302309.872510723,"Orland Park"
"651","Orlando FL","FL",211226,28.5,-81.37,0,1822527.28681683,-1632388.19080102,"Orlando"
"652","Oshkosh WI","WI",62967,44.02,-88.55,0,911802.628344002,-44608.4752096698,"Oshkosh"
"653","Overland Park KS","KS",169520,38.91,-94.68,0,460572.64186453,-662130.078057864,"Overland Park"
"654","Owensboro KY","KY",54513,37.76,-87.12,0,1128989.92045443,-717260.928330149,"Owensboro"
"655","Oxnard CA","CA",190658,34.2,-119.21,0,-1755986.55811952,-998975.763534916,"Oxnard"
"656","Pahrump NV","NV",44614,36.2,-115.99,0,-1428366.75790293,-841168.836903726,"Pahrump"
"657","Palatine IL","IL",68308,42.11,-88.04,0,982556.431706886,-249460.040880802,"Palatine"
"658","Palm Bay FL","FL",91080,27.99,-80.66,0,1901021.30335159,-1672641.8767592,"Palm Bay"
"659","Palm Beach Gardens FL","FL",50768,26.84,-80.12,0,1976753.50317644,-1785569.86284313,"Palm Beach Gardens"
"660","Palm Coast FL","FL",43487,29.57,-81.21,0,1816345.95601024,-1512504.15176526,"Palm Coast"
"661","Palm Desert CA","CA",50126,33.73,-116.38,0,-1510604.09195354,-1105020.55897318,"Palm Desert"
"662","Palm Harbor FL","FL",65500,28.09,-82.76,0,1696285.46352175,-1705222.63971765,"Palm Harbor"
"663","Palm Springs CA","CA",47434,33.78,-116.53,0,-1523262.74631658,-1096860.70261395,"Palm Springs"
"664","Palmdale CA","CA",139337,34.61,-118.09,0,-1646884.21689506,-976810.491047128,"Palmdale"
"665","Palo Alto CA","CA",56084,37.4,-122.14,0,-1931824.77347839,-586126.774939307,"Palo Alto"
"666","Paradise NV","NV",221051,36.08,-115.13,0,-1354792.60585157,-868604.474630718,"Paradise"
"667","Paramount CA","CA",57672,33.9,-118.16,0,-1668237.04242957,-1053004.74242192,"Paramount"
"668","Parker CO","CO",45478,39.51,-104.76,0,-408544.203495807,-598507.43521314,"Parker"
"669","Parkway-South Sacramento CA","CA",39984,38.51,-121.45,0,-1843806.85123564,-481364.439181893,"Parkway-South Sacramento"
"670","Parma OH","OH",81917,41.38,-81.73,0,1509526.75660485,-233541.534292837,"Parma"
"671","Parsippany-Troy Hills Township NJ","NJ",52051,40.86,-74.42,0,2109692.54809522,-127757.584720269,"Parsippany-Troy Hills Township"
"672","Pasadena CA","CA",146676,34.16,-118.14,0,-1660930.47601418,-1024996.19878013,"Pasadena"
"673","Pasadena TX","TX",145351,29.66,-95.15,0,472566.011196978,-1687441.27139436,"Pasadena"
"674","Pasco WA","WA",45774,46.25,-119.13,0,-1453713.65546542,313154.483973181,"Pasco"
"675","Passaic NJ","NJ",69035,40.86,-74.13,0,2132616.57502465,-120203.443677642,"Passaic"
"676","Paterson NJ","NJ",151523,40.91,-74.16,0,2128581.43945226,-115621.871259346,"Paterson"
"677","Pawtucket RI","RI",75297,41.87,-71.37,0,2311593.05766387,63354.4765102357,"Pawtucket"
"678","Peabody MA","MA",50698,42.53,-70.97,0,2317085.90496279,144943.291032326,"Peabody"
"679","Pearland TX","TX",59287,29.56,-95.28,0,460425.723768448,-1699150.70965316,"Pearland"
"680","Pembroke Pines FL","FL",160157,26.01,-80.34,0,1971973.33797105,-1880634.7292913,"Pembroke Pines"
"681","Penn Hills PA","PA",44124,40.48,-79.83,0,1686214.44951269,-294607.564551711,"Penn Hills"
"682","Pensacola FL","FL",53652,30.44,-87.19,0,1232519.02678625,-1523071.85374741,"Pensacola"
"683","Peoria AZ","AZ",146634,33.69,-112.24,0,-1133177.14053777,-1173919.31989132,"Peoria"
"684","Peoria IL","IL",112894,40.74,-89.61,0,873092.117979902,-418495.347284643,"Peoria"
"685","Perris CA","CA",48555,33.79,-117.22,0,-1585593.91651932,-1083102.10402909,"Perris"
"686","Perth Amboy NJ","NJ",49448,40.52,-74.27,0,2132800.00966121,-160372.516066165,"Perth Amboy"
"687","Petaluma CA","CA",55536,38.24,-122.63,0,-1949793.58193614,-483562.850917566,"Petaluma"
"688","Pharr TX","TX",63806,26.18,-98.19,0,183063.687999772,-2081417.08875922,"Pharr"
"689","Philadelphia PA","PA",1439814,40.01,-75.13,0,2080519.86159339,-237404.145129064,"Philadelphia"
"690","Phoenix AZ","AZ",1450884,33.54,-112.07,2,-1119669.54503695,-1192673.81317603,"Phoenix"
"691","Pico Rivera CA","CA",66874,33.99,-118.09,0,-1660029.85266273,-1044550.77059716,"Pico Rivera"
"692","Pierre SD","SD",14052,44.37,-100.34,2,-27025.6942326156,-69995.8729365269,"Pierre"
"693","Pine Bluff AR","AR",52802,34.21,-92.02,0,735746.589010746,-1163447.02115482,"Pine Bluff"
"694","Pine Hills FL","FL",46248,28.58,-81.46,0,1812312.11131551,-1625565.42549561,"Pine Hills"
"695","Pinellas Park FL","FL",46469,27.86,-82.71,0,1705303.6056359,-1729312.24028465,"Pinellas Park"
"696","Pittsburg CA","CA",64106,38.02,-121.89,0,-1893890.25650657,-524620.842009885,"Pittsburg"
"697","Pittsburgh PA","PA",316272,40.44,-79.98,0,1675013.67407119,-302036.443200997,"Pittsburgh"
"698","Pittsfield MA","MA",43821,42.45,-73.26,0,2145839.3858721,73076.0780284066,"Pittsfield"
"699","Placentia CA","CA",49679,33.88,-117.85,0,-1640698.54972117,-1061253.87273764,"Placentia"
"700","Plainfield NJ","NJ",47769,40.62,-74.42,0,2117590.67088522,-153540.149621082,"Plainfield"
"701","Plano TX","TX",260415,33.05,-96.75,0,304474.334805534,-1320583.53299406,"Plano"
"702","Plantation FL","FL",86330,26.13,-80.26,0,1977433.96949622,-1865808.18850331,"Plantation"
"703","Pleasanton CA","CA",67119,37.67,-121.89,0,-1903364.21366522,-562608.682524073,"Pleasanton"
"704","Plymouth MA","MA",133313,41.96,-70.67,0,2361617.0913921,93163.4973228897,"Plymouth"
"705","Plymouth MN","MN",73505,45.02,-93.46,0,513340.852516926,22964.7095268634,"Plymouth"
"706","Pocatello ID","ID",50496,42.88,-112.47,0,-1011339.73687714,-158314.107913462,"Pocatello"
"707","Pomona CA","CA",157501,34.06,-117.76,0,-1628848.45123337,-1043321.04690698,"Pomona"
"708","Pompano Beach FL","FL",90446,26.24,-80.13,0,1987967.5061104,-1850926.57238423,"Pompano Beach"
"709","Pontiac MI","MI",67952,42.65,-83.29,0,1355075.11824794,-122013.52536672,"Pontiac"
"710","Port Arthur TX","TX",56728,29.9,-93.93,0,589643.701290245,-1653546.95811578,"Port Arthur"
"711","Port Charlotte FL","FL",49840,26.99,-82.11,0,1779665.78808157,-1812066.83219946,"Port Charlotte"
"712","Port Orange FL","FL",55891,29.11,-81.01,0,1844709.2780564,-1558353.46974301,"Port Orange"
"713","Port Saint Lucie FL","FL",126377,27.28,-80.35,0,1945428.24839344,-1742955.43447893,"Port Saint Lucie"
"714","Portage MI","MI",46666,42.2,-85.59,0,1179754.71522469,-207146.506696965,"Portage"
"715","Porterville CA","CA",45703,36.06,-119.03,0,-1697847.80829265,-799742.783292887,"Porterville"
"716","Portland ME","ME",62882,43.66,-70.28,0,2324615.19683288,284570.077847116,"Portland"
"717","Portland OR","OR",542751,45.54,-122.66,0,-1735851.13180847,306560.827407318,"Portland"
"718","Portsmouth VA","VA",98664,36.86,-76.36,0,2074082.46293226,-608428.103702462,"Portsmouth"
"719","Potomac MD","MD",45119,39.03,-77.2,0,1941459.04057558,-393980.690139022,"Potomac"
"720","Poway CA","CA",49943,32.99,-117.02,0,-1583211.55221049,-1174336.32100081,"Poway"
"721","Prescott AZ","AZ",41432,34.58,-112.45,0,-1139486.95776363,-1073181.36578771,"Prescott"
"722","Providence RI","RI",178295,41.82,-71.42,2,2309628.46139162,56607.3355784801,"Providence"
"723","Provo UT","UT",105832,40.25,-111.64,0,-984661.060056277,-458529.074941661,"Provo"
"724","Pueblo CO","CO",104659,38.27,-104.62,0,-403763.878675977,-736733.095155461,"Pueblo"
"725","Quincy IL","IL",39549,39.93,-91.39,0,733232.640701684,-525409.004451311,"Quincy"
"726","Quincy MA","MA",89347,42.26,-71.01,0,2324340.16749585,115131.496470053,"Quincy"
"727","Racine WI","WI",78703,42.73,-87.81,0,991277.050599477,-178291.507982313,"Racine"
"728","Raleigh NC","NC",350822,35.82,-78.66,2,1904894.04671335,-776134.408274813,"Raleigh"
"729","Rancho Cordova CA","CA",59972,38.6,-121.3,0,-1828871.91718049,-474922.355810151,"Rancho Cordova"
"730","Rancho Cucamonga CA","CA",177721,34.12,-117.57,0,-1610500.85535942,-1040402.71594123,"Rancho Cucamonga"
"731","Rancho Palos Verdes CA","CA",42966,33.76,-118.36,0,-1689247.1644112,-1064325.64137478,"Rancho Palos Verdes"
"732","Rancho Santa Margarita CA","CA",52447,33.64,-117.6,0,-1623037.45100947,-1092304.90837494,"Rancho Santa Margarita"
"733","Rapid City SD","SD",62302,44.08,-103.23,0,-257932.788408044,-97176.5412695405,"Rapid City"
"734","Reading PA","PA",79476,40.34,-75.93,0,2005882.6008493,-221823.526231332,"Reading"
"735","Redan GA","GA",40141,33.74,-84.16,0,1461343.5202827,-1113392.57817554,"Redan"
"736","Redding CA","CA",93865,40.57,-122.36,0,-1861354.23545705,-237394.547268306,"Redding"
"737","Redford MI","MI",49542,42.39,-83.29,0,1360824.56812109,-150487.341405832,"Redford"
"738","Redlands CA","CA",71605,34.06,-117.17,0,-1575665.93661115,-1054502.05087443,"Redlands"
"739","Redmond WA","WA",47662,47.67,-122.11,0,-1629555.67976823,524624.938892984,"Redmond"
"740","Redondo Beach CA","CA",68669,33.86,-118.38,0,-1688914.62726765,-1053006.52322386,"Redondo Beach"
"741","Redwood City CA","CA",71340,37.52,-122.21,0,-1934476.18150751,-571477.266200605,"Redwood City"
"742","Reno NV","NV",206626,39.54,-119.82,0,-1681454.54390532,-404145.025351011,"Reno"
"743","Renton WA","WA",57369,47.48,-122.2,0,-1641909.95686971,505998.241244522,"Renton"
"744","Reston VA","VA",61977,38.95,-77.35,0,1931364.17255737,-406172.518583736,"Reston"
"745","Revere MA","MA",46259,42.42,-70.99,0,2319768.95689666,132693.024057304,"Revere"
"746","Rialto CA","CA",103423,34.11,-117.39,0,-1594492.20996878,-1044908.74454687,"Rialto"
"747","Richardson TX","TX",107481,32.97,-96.71,0,308521.864934691,-1329283.51641282,"Richardson"
"748","Richland WA","WA",46156,46.29,-119.29,0,-1464507.42197331,320421.509084548,"Richland"
"749","Richmond CA","CA",103818,37.95,-122.36,0,-1935283.2356485,-521339.697069377,"Richmond"
"750","Richmond VA","VA",189498,37.53,-77.47,2,1961229.91395874,-562873.787463768,"Richmond"
"751","Rio Rancho NM","NM",66833,35.27,-106.66,0,-606036.502800985,-1056754.01922046,"Rio Rancho"
"752","Riverside CA","CA",306351,33.94,-117.4,0,-1598845.24831499,-1063310.92445156,"Riverside"
"753","Roanoke VA","VA",90410,37.28,-79.96,0,1756168.82273548,-645799.522179208,"Roanoke"
"754","Rochester Hills MI","MI",68879,42.67,-83.16,0,1364984.27075594,-117651.89913896,"Rochester Hills"
"755","Rochester MN","MN",98227,44.01,-92.48,0,600354.214211294,-82303.5746339445,"Rochester"
"756","Rochester NY","NY",209587,43.17,-77.62,0,1786826.02928417,44462.2690077626,"Rochester"
"757","Rock Hill SC","SC",61899,34.94,-81.03,0,1717982.9506263,-923191.280542853,"Rock Hill"
"758","Rockford IL","IL",153148,42.27,-89.06,0,897099.69550309,-243512.584050896,"Rockford"
"759","Rocklin CA","CA",59546,38.8,-121.24,0,-1818540.6887363,-454517.277239635,"Rocklin"
"760","Rockville MD","MD",63516,39.08,-77.15,0,1944144.11427381,-387386.757197588,"Rockville"
"761","Rocky Mount NC","NC",56008,35.96,-77.81,0,1974887.5175877,-741194.612596299,"Rocky Mount"
"762","Rogers AR","AR",46984,36.33,-94.13,0,526820.642087581,-944765.093582024,"Rogers"
"763","Rohnert Park CA","CA",41154,38.35,-122.7,0,-1952530.2312798,-469991.430626194,"Rohnert Park"
"764","Romeoville IL","IL",46960,41.65,-88.09,0,985682.630962216,-300811.851558617,"Romeoville"
"765","Rosemead CA","CA",56542,34.07,-118.08,0,-1657441.45559044,-1036006.9716766,"Rosemead"
"766","Roseville CA","CA",120444,38.76,-121.29,0,-1823771.9948989,-457759.910039167,"Roseville"
"767","Roseville MI","MI",47190,42.51,-82.94,0,1386108.72962785,-131449.83654279,"Roseville"
"768","Roswell GA","GA",76825,34.04,-84.36,0,1437685.66009483,-1083936.25163825,"Roswell"
"769","Roswell NM","NM",43788,33.37,-104.53,0,-422601.100117214,-1279760.25062139,"Roswell"
"770","Round Rock TX","TX",95330,30.52,-97.67,0,224949.032297553,-1602791.15700097,"Round Rock"
"771","Rowland Heights CA","CA",53112,33.98,-117.89,0,-1642223.58313769,-1049549.38821886,"Rowland Heights"
"772","Rowlett TX","TX",57174,32.91,-96.55,0,323753.774774555,-1335324.04261609,"Rowlett"
"773","Royal Oak MI","MI",57043,42.51,-83.15,0,1369351.37301293,-135001.698991139,"Royal Oak"
"774","Sacramento CA","CA",480392,38.57,-121.47,2,-1843868.71974593,-474401.080004194,"Sacramento"
"775","Saginaw MI","MI",56685,43.42,-83.95,0,1285961.91439559,-48368.2861579176,"Saginaw"
"776","Saint Charles MO","MO",62284,38.79,-90.52,0,820645.775176881,-643372.579991198,"Saint Charles"
"777","Saint Clair Shores MI","MI",60089,42.49,-82.89,0,1390549.54944052,-132786.410213607,"Saint Clair Shores"
"778","Saint Cloud MN","MN",59074,45.55,-94.17,0,453484.774397453,77524.3537197574,"Saint Cloud"
"779","Saint George UT","UT",63952,37.08,-113.58,0,-1201066.98835427,-782348.954098679,"Saint George"
"780","Saint Joseph MO","MO",71282,39.76,-94.82,0,442886.639612764,-568616.199119274,"Saint Joseph"
"781","Saint Louis MO","MO",315546,38.64,-90.24,0,846587.728604956,-657147.576981777,"Saint Louis"
"782","Saint Louis Park MN","MN",44032,44.95,-93.36,0,521805.621761716,15839.6198875249,"Saint Louis Park"
"783","Saint Paul MN","MN",272469,44.95,-93.1,2,542177.122105148,17547.767585001,"Saint Paul"
"784","Saint Peters MO","MO",54258,38.78,-90.61,0,813014.111603254,-645362.498539696,"Saint Peters"
"785","Saint Petersburg FL","FL",245804,27.76,-82.64,0,1713914.49815407,-1738834.24837605,"Saint Petersburg"
"786","Salem NH","NH",42859,42.53,-70.87,0,2324634.80462421,147824.278251481,"Salem"
"787","Salem OR","OR",148942,44.92,-123.02,2,-1781991.97341699,247605.247085405,"Salem"
"788","Salina KS","KS",45715,38.82,-97.62,0,206454.504649934,-683900.645210201,"Salina"
"789","Salinas CA","CA",150050,36.68,-121.64,0,-1908471.39230076,-675838.162705488,"Salinas"
"790","Salt Lake City UT","UT",177318,40.78,-111.93,2,-1000833.81864007,-396555.63737197,"Salt Lake City"
"791","San Angelo TX","TX",88143,31.45,-100.45,0,-42986.8829724692,-1503069.60029646,"San Angelo"
"792","San Antonio TX","TX",1278171,29.46,-98.51,0,145585.814736981,-1721429.50352263,"San Antonio"
"793","San Bernardino CA","CA",205743,34.14,-117.29,0,-1584874.27160007,-1043508.19715076,"San Bernardino"
"794","San Bruno CA","CA",39523,37.62,-122.43,0,-1950301.95242246,-555476.923904137,"San Bruno"
"795","San Buenaventura CA","CA",106518,34.27,-119.26,0,-1758881.53697557,-990299.582282436,"San Buenaventura"
"796","San Clemente CA","CA",64987,33.45,-117.61,0,-1627817.56378557,-1112881.5294607,"San Clemente"
"797","San Diego CA","CA",1299352,32.81,-117.14,0,-1597724.05636491,-1191775.70710578,"San Diego"
"798","San Francisco CA","CA",723724,37.77,-122.45,0,-1947834.3008187,-538743.964422847,"San Francisco"
"799","San Gabriel CA","CA",41861,34.09,-118.1,0,-1658817.72669734,-1033429.48668715,"San Gabriel"
"800","San Jose CA","CA",897883,37.3,-121.85,0,-1909929.81576466,-603691.612515147,"San Jose"
"801","San Leandro CA","CA",80015,37.71,-122.15,0,-1924217.88361384,-552263.336864468,"San Leandro"
"802","San Luis Obispo CA","CA",44098,35.27,-120.66,0,-1859315.28849301,-851234.133200481,"San Luis Obispo"
"803","San Marcos CA","CA",73020,33.14,-117.17,0,-1593974.16021247,-1155127.2424997,"San Marcos"
"804","San Marcos TX","TX",49051,29.88,-97.93,0,201303.303923787,-1673991.34575853,"San Marcos"
"805","San Mateo CA","CA",89495,37.56,-122.31,0,-1941828.81806076,-564800.890036966,"San Mateo"
"806","San Rafael CA","CA",55133,37.98,-122.51,0,-1947035.22474,-514567.924115916,"San Rafael"
"807","San Ramon CA","CA",46278,37.76,-121.95,0,-1905992.78982076,-551461.513734152,"San Ramon"
"808","Sandwich MA","MA",51140,41.76,-70.5,0,2382236.92756733,76941.4022755987,"Sandwich"
"809","Sandy Springs GA","GA",96496,33.94,-84.37,0,1438602.72760059,-1095067.42833086,"Sandy Springs"
"810","Sandy UT","UT",89698,40.57,-111.85,0,-997395.029866845,-420695.073572511,"Sandy"
"811","Sanford FL","FL",46777,28.79,-81.28,0,1825391.55621064,-1598920.64310799,"Sanford"
"812","Santa Ana CA","CA",344086,33.74,-117.88,0,-1646316.57067228,-1075970.08169445,"Santa Ana"
"813","Santa Barbara CA","CA",86115,34.43,-119.72,0,-1796261.32771201,-963156.105200611,"Santa Barbara"
"814","Santa Clara CA","CA",102178,37.37,-121.97,0,-1918230.46466492,-593326.225295248,"Santa Clara"
"815","Santa Clarita CA","CA",172730,34.41,-118.51,0,-1688727.17832384,-990349.40328543,"Santa Clarita"
"816","Santa Cruz CA","CA",54583,36.97,-122.04,0,-1934957.63347914,-635113.32077046,"Santa Cruz"
"817","Santa Fe NM","NM",70598,35.68,-105.95,2,-538650.317413237,-1016206.51569028,"Santa Fe"
"818","Santa Maria CA","CA",87107,34.94,-120.44,0,-1848004.60900223,-892010.131728971,"Santa Maria"
"819","Santa Monica CA","CA",89112,34.01,-118.49,0,-1695593.90061119,-1034425.80504893,"Santa Monica"
"820","Santa Rosa CA","CA",156669,38.45,-122.7,0,-1949701.15546172,-459158.327478162,"Santa Rosa"
"821","Santee CA","CA",52505,32.86,-116.98,0,-1582081.64350118,-1189298.88118613,"Santee"
"822","Sarasota FL","FL",53422,27.34,-82.55,0,1730293.11906568,-1782807.75457699,"Sarasota"
"823","Savannah GA","GA",124898,32.02,-81.13,0,1772832.56628749,-1243806.69720803,"Savannah"
"824","Sayreville NJ","NJ",43390,40.47,-74.32,0,2130471.86131301,-167049.860375029,"Sayreville"
"825","Schaumburg IL","IL",73071,42.03,-88.08,0,980555.359999455,-258765.967407487,"Schaumburg"
"826","Schenectady NY","NY",59930,42.8,-73.93,0,2082390.45287225,92986.2565161694,"Schenectady"
"827","Scottsdale AZ","AZ",230949,33.69,-111.87,0,-1099200.22622828,-1178778.97646503,"Scottsdale"
"828","Scranton PA","PA",72516,41.4,-75.67,0,1993501.28962916,-101169.878298873,"Scranton"
"829","Seattle Hill-Silver Firs WA","WA",42238,47.88,-121.16,0,-1555395.95619527,528230.443403587,"Seattle Hill-Silver Firs"
"830","Seattle WA","WA",570430,47.62,-122.35,0,-1648233.79321674,524191.941935481,"Seattle"
"831","Severn MD","MD",43718,39.14,-76.69,0,1980238.78283851,-369922.379578029,"Severn"
"832","Shawnee KS","KS",59626,39.02,-94.8,0,449479.050670663,-650588.052247032,"Shawnee"
"833","Sheboygan WI","WI",48123,43.75,-87.73,0,980973.583387772,-64839.3776403543,"Sheboygan"
"834","Shelton CT","CT",39988,41.3,-73.14,0,2195353.24833971,-46698.7861397281,"Shelton"
"835","Shoreline WA","WA",51316,47.75,-122.36,0,-1644849.48323914,538402.828258666,"Shoreline"
"836","Shreveport LA","LA",196228,32.47,-93.8,0,584504.372079152,-1369342.35679789,"Shreveport"
"837","Sierra Vista AZ","AZ",42088,31.57,-110.32,0,-981564.518759185,-1430948.2846816,"Sierra Vista"
"838","Silver Spring MD","MD",78119,39.01,-77.02,0,1956873.34623556,-391883.512955542,"Silver Spring"
"839","Simi Valley CA","CA",121033,34.26,-118.75,0,-1713480.94190817,-1001885.85550988,"Simi Valley"
"840","Sioux City IA","IA",82863,42.5,-96.39,0,295904.2698202,-271443.301019427,"Sioux City"
"841","Sioux Falls SD","SD",143534,43.54,-96.73,0,263509.883526333,-157055.440549604,"Sioux Falls"
"842","Skokie IL","IL",64350,42.04,-87.74,0,1008106.32297635,-253532.694860706,"Skokie"
"843","Smyrna GA","GA",47442,33.87,-84.52,0,1426248.57005662,-1105276.91689011,"Smyrna"
"844","Somerville MA","MA",74802,42.39,-71.1,0,2312581.78161785,126347.442525874,"Somerville"
"845","South Bend IN","IN",102927,41.68,-86.27,0,1134134.09092137,-273966.964607312,"South Bend"
"846","South Gate CA","CA",100612,33.94,-118.19,0,-1670093.2574179,-1048043.23609945,"South Gate"
"847","South Hill WA","WA",47384,47.14,-122.27,0,-1657541.84406069,470799.763270585,"South Hill"
"848","South San Francisco CA","CA",58176,37.66,-122.42,0,-1948353.24310101,-551375.379480849,"South San Francisco"
"849","South Valley NM","NM",39544,35.01,-106.68,0,-609917.887493227,-1085361.30480729,"South Valley"
"850","South Whittier CA","CA",59657,33.93,-118.03,0,-1655887.6015662,-1052282.47598815,"South Whittier"
"851","Southaven MS","MS",40806,34.97,-90,0,912078.666560863,-1059914.84206988,"Southaven"
"852","Southfield MI","MI",76506,42.48,-83.26,0,1361233.5281342,-140130.041193611,"Southfield"
"853","Southglenn CO","CO",41951,39.59,-104.95,0,-424324.219005016,-588678.295636065,"Southglenn"
"854","Sparks NV","NV",88518,39.54,-119.74,0,-1674829.00025566,-405775.29366356,"Sparks"
"855","Spokane WA","WA",197513,47.67,-117.41,0,-1291080.10079501,438276.342096642,"Spokane"
"856","Spring Hill FL","FL",103782,28.48,-82.56,0,1708458.63082376,-1658790.71205524,"Spring Hill"
"857","Spring Valley NV","NV",176522,36.11,-115.24,0,-1363957.94985229,-863529.356945679,"Spring Valley"
"858","Springdale AR","AR",58761,36.18,-94.15,0,526091.734498556,-961496.346693269,"Springdale"
"859","Springfield IL","IL",116725,39.78,-89.64,2,883364.592905125,-524902.372321472,"Springfield"
"860","Springfield MA","MA",152095,42.12,-72.54,0,2212772.55462829,57244.0077707956,"Springfield"
"861","Springfield MO","MO",150128,37.2,-93.29,0,594900.446020495,-842831.250272751,"Springfield"
"862","Springfield OH","OH",63915,39.93,-83.8,0,1371754.82369708,-428590.099164852,"Springfield"
"863","Springfield OR","OR",56575,44.05,-122.98,0,-1806071.08112816,152878.307564729,"Springfield"
"864","Stamford CT","CT",122011,41.1,-73.55,0,2170173.20940887,-79128.3947929265,"Stamford"
"865","State College PA","PA",42420,40.79,-77.86,0,1837326.64541232,-218535.961666347,"State College"
"866","Sterling Heights MI","MI",127027,42.58,-83.03,0,1377356.01260393,-125315.091068132,"Sterling Heights"
"867","Sterling VA","VA",56529,39.01,-77.43,0,1923052.2717453,-401544.963841554,"Sterling"
"868","Stillwater OK","OK",43473,36.13,-97.07,0,263868.17835373,-980727.188549959,"Stillwater"
"869","Stockton CA","CA",299188,37.97,-121.31,0,-1846419.04170632,-543153.600947936,"Stockton"
"870","Stratford CT","CT",51466,41.2,-73.13,0,2199611.97625247,-57127.377425082,"Stratford"
"871","Strongsville OH","OH",45073,41.31,-81.83,0,1503089.30159636,-243029.892415787,"Strongsville"
"872","Suffolk VA","VA",84396,36.7,-76.64,0,2054866.93885667,-632697.331469515,"Suffolk"
"873","Sugar Land TX","TX",78502,29.62,-95.62,0,427010.671659764,-1694280.36660897,"Sugar Land"
"874","Sumter SC","SC",40018,33.94,-80.39,0,1797702.86333125,-1018904.38814626,"Sumter"
"875","Sun City AZ","AZ",41380,33.62,-112.28,0,-1137846.53026914,-1181085.17643504,"Sun City"
"876","Sunnyvale CA","CA",125486,37.39,-122.03,0,-1922776.41898547,-589767.087201488,"Sunnyvale"
"877","Sunrise FL","FL",92094,26.15,-80.3,0,1973109.3917973,-1864539.56373096,"Sunrise"
"878","Sunrise Manor NV","NV",195581,36.19,-115.05,0,-1345725.55443987,-857816.361703166,"Sunrise Manor"
"879","Surprise AZ","AZ",74962,33.66,-112.47,0,-1154719.04158009,-1174122.92128773,"Surprise"
"880","Syracuse NY","NY",140793,43.04,-76.14,0,1904969.94178989,64218.6676983078,"Syracuse"
"881","Tacoma WA","WA",197621,47.25,-122.46,0,-1667751.63702998,486627.138468227,"Tacoma"
"882","Tallahassee FL","FL",154114,30.46,-84.28,2,1508722.48332611,-1474584.48790991,"Tallahassee"
"883","Tamarac FL","FL",60021,26.2,-80.26,0,1976031.67305752,-1858210.82797431,"Tamarac"
"884","Tamiami FL","FL",72493,25.76,-80.4,0,1971022.32247559,-1909113.77688558,"Tamiami"
"885","Tampa FL","FL",328578,27.96,-82.48,0,1725780.104936,-1713881.23948925,"Tampa"
"886","Taunton MA","MA",57377,41.9,-71.09,0,2331875.08431742,74588.4213183646,"Taunton"
"887","Taylor MI","MI",64874,42.23,-83.27,0,1365957.13850486,-167675.948920346,"Taylor"
"888","Taylorsville UT","UT",58200,40.66,-111.94,0,-1003517.58813513,-409672.614585244,"Taylorsville"
"889","Teaneck NJ","NJ",40197,40.89,-74.01,0,2141087.79932033,-113834.208739277,"Teaneck"
"890","Temecula CA","CA",90347,33.5,-117.13,0,-1583207.84248918,-1116504.33462597,"Temecula"
"891","Tempe AZ","AZ",158313,33.39,-111.93,0,-1108858.34309325,-1211010.16287041,"Tempe"
"892","Temple TX","TX",55916,31.1,-97.36,0,253173.359375637,-1537947.62075671,"Temple"
"893","Terre Haute IN","IN",56544,39.47,-87.38,0,1079359.33631634,-532315.000133703,"Terre Haute"
"894","Texas City TX","TX",44321,29.41,-94.96,0,492416.250479255,-1713910.43404587,"Texas City"
"895","The Colony TX","TX",45532,33.09,-96.89,0,291222.696084385,-1316649.34848252,"The Colony"
"896","The Hammocks FL","FL",75402,25.67,-80.44,0,1968851.40282132,-1919777.4470701,"The Hammocks"
"897","The Woodlands TX","TX",80285,30.16,-95.49,0,437020.760820676,-1634147.47098447,"The Woodlands"
"898","Thornton CO","CO",109695,39.89,-104.96,0,-423281.407290501,-555343.540246447,"Thornton"
"899","Thousand Oaks CA","CA",130136,34.19,-118.87,0,-1725769.63042565,-1007080.42578278,"Thousand Oaks"
"900","Tigard OR","OR",48122,45.43,-122.77,0,-1747428.7094803,297090.597857718,"Tigard"
"901","Tinley Park IL","IL",59056,41.57,-87.8,0,1010743.16464464,-306106.885766221,"Tinley Park"
"902","Titusville FL","FL",43054,28.59,-80.82,0,1873446.38806774,-1610862.91783235,"Titusville"
"903","Toledo OH","OH",305292,41.66,-83.58,0,1353366.5934719,-235283.866832941,"Toledo"
"904","Toms River NJ","NJ",127934,39.94,-74.17,0,2159881.89802261,-220041.894169289,"Toms River"
"905","Tonawanda CDP NY","NY",59175,42.98,-78.88,0,1694502.32139195,-3209.36720815548,"Tonawanda CDP"
"906","Topeka KS","KS",121229,39.04,-95.69,2,372534.162541264,-652768.319610105,"Topeka"
"907","Torrance CA","CA",146264,33.83,-118.34,0,-1685949.98524744,-1057080.62201169,"Torrance"
"908","Town'n'Country FL","FL",80599,28.01,-82.58,0,1715175.27099999,-1710411.00088763,"Town'n'Country"
"909","Towson MD","MD",54075,39.4,-76.62,0,1978318.15018789,-340121.742992898,"Towson"
"910","Tracy CA","CA",89639,37.74,-121.43,0,-1862627.37380028,-565457.600705297,"Tracy"
"911","Trenton NJ","NJ",84653,40.22,-74.76,2,2103501.83784122,-205333.946482032,"Trenton"
"912","Troy MI","MI",81296,42.58,-83.14,0,1368587.33646739,-127169.677992144,"Troy"
"913","Troy NY","NY",47993,42.73,-73.68,0,2103916.36788755,91974.7134306406,"Troy"
"914","Tuckahoe VA","VA",43996,37.59,-77.59,0,1949443.57132222,-559200.227093109,"Tuckahoe"
"915","Tucson AZ","AZ",525268,32.2,-110.89,0,-1027701.69374463,-1354957.87282363,"Tucson"
"916","Tulare CA","CA",51365,36.2,-119.34,0,-1721639.13180627,-778131.549722646,"Tulare"
"917","Tulsa OK","OK",379833,36.13,-95.92,0,367348.571781417,-976420.387626437,"Tulsa"
"918","Turlock CA","CA",70570,37.5,-120.85,0,-1819715.88305155,-604420.598427671,"Turlock"
"919","Tuscaloosa AL","AL",80164,33.24,-87.54,0,1159855.0063436,-1220445.57541914,"Tuscaloosa"
"920","Tustin CA","CA",69024,33.73,-117.81,0,-1640195.02589824,-1078421.72865918,"Tustin"
"921","Twin Falls ID","ID",39383,42.56,-114.46,0,-1176914.0276886,-166846.966280472,"Twin Falls"
"922","Tyler TX","TX",92155,32.33,-95.3,0,444041.809783049,-1393800.3592157,"Tyler"
"923","Union City CA","CA",70125,37.6,-122.02,0,-1916240.53176179,-567210.337452495,"Union City"
"924","Union City NJ","NJ",65939,40.77,-74.03,0,2143523.0311783,-127236.650711938,"Union City"
"925","Union NJ","NJ",57198,40.7,-74.27,0,2126852.77600873,-141041.548886693,"Union"
"926","Upland CA","CA",75365,34.12,-117.66,0,-1618603.43220824,-1038683.39732208,"Upland"
"927","Urbana IL","IL",39834,40.11,-88.21,0,999361.062095654,-472174.531200806,"Urbana"
"928","Utica NY","NY",58151,43.1,-75.23,0,1972865.43675893,92517.9424347499,"Utica"
"929","Vacaville CA","CA",98110,38.36,-121.97,0,-1891327.66781782,-485893.635035948,"Vacaville"
"930","Valdosta GA","GA",45909,30.85,-83.28,0,1596076.76505926,-1413886.32248436,"Valdosta"
"931","Vallejo CA","CA",121146,38.11,-122.26,0,-1922471.04148761,-506321.917109479,"Vallejo"
"932","Vancouver WA","WA",161034,45.63,-122.64,0,-1731572.0106636,315834.450419217,"Vancouver"
"933","Vestavia Hills AL","AL",39397,33.43,-86.79,0,1226104.47574485,-1189044.88992356,"Vestavia Hills"
"934","Victoria TX","TX",62296,28.82,-96.98,0,297099.76907307,-1788016.67808937,"Victoria"
"935","Victorville CA","CA",87903,34.52,-117.33,0,-1580754.62761601,-1001192.92943708,"Victorville"
"936","Vineland NJ","NJ",58511,39.46,-75,0,2108425.81007613,-293306.790822091,"Vineland"
"937","Virginia Beach VA","VA",453884,36.74,-76.04,0,2104701.95304139,-613352.461280506,"Virginia Beach"
"938","Visalia CA","CA",110620,36.33,-119.32,0,-1716862.63347583,-764362.570617281,"Visalia"
"939","Vista CA","CA",93266,33.19,-117.24,0,-1599371.45550882,-1148343.44455251,"Vista"
"940","WASHINGTON DC","DC",548359,38.91,-77.02,0,1959760.25202232,-402707.519974788,"WASHINGTON"
"941","Waco TX","TX",119911,31.57,-97.18,0,268948.132513402,-1485525.4474952,"Waco"
"942","Walnut Creek CA","CA",65334,37.9,-122.04,0,-1909766.05612119,-534196.21091293,"Walnut Creek"
"943","Walpole MA","MA",45127,42.14,-71.25,0,2310634.92236536,95491.6374801704,"Walpole"
"944","Waltham MA","MA",58407,42.39,-71.24,0,2301972.4568395,122341.176753063,"Waltham"
"945","Warner Robins GA","GA",59593,32.61,-83.63,0,1530798.2859998,-1227805.16542288,"Warner Robins"
"946","Warren MI","MI",132537,42.49,-83.03,0,1379377.38615744,-135166.677979542,"Warren"
"947","Warren OH","OH",44933,41.24,-80.82,0,1586533.24502583,-231595.032610918,"Warren"
"948","Warwick RI","RI",88443,41.7,-71.42,0,2314094.16138158,43842.0552369172,"Warwick"
"949","Waterbury CT","CT",108645,41.56,-73.04,0,2194057.74789995,-16183.9937914603,"Waterbury"
"950","Waterford MI","MI",76204,42.66,-83.39,0,1346886.05742546,-122577.564387978,"Waterford"
"951","Waterloo IA","IA",65260,42.49,-92.35,0,626273.862389266,-249793.668214732,"Waterloo"
"952","Watsonville CA","CA",45659,36.92,-121.77,0,-1913254.04271738,-646789.113382276,"Watsonville"
"953","Waukegan IL","IL",93664,42.37,-87.87,0,992232.426565713,-218726.243122049,"Waukegan"
"954","Waukesha WI","WI",68725,43.01,-88.24,0,952231.778953159,-152525.373004244,"Waukesha"
"955","Wauwatosa WI","WI",45076,43.06,-88.03,0,968286.201587502,-144534.560760819,"Wauwatosa"
"956","Wayne NJ","NJ",58667,40.95,-74.25,0,2120146.88512398,-113676.760054683,"Wayne"
"957","Wellington FL","FL",56712,26.66,-80.25,0,1967744.65768561,-1808049.45464693,"Wellington"
"958","West Allis WI","WI",58958,43.01,-88.03,0,969084.977924834,-150050.474230564,"West Allis"
"959","West Babylon NY","NY",43595,40.71,-73.36,0,2198460.11867316,-115804.93126341,"West Babylon"
"960","West Bloomfield Township MI","MI",70520,42.57,-83.38,0,1349665.0077492,-132269.76912017,"West Bloomfield Township"
"961","West Covina CA","CA",110646,34.05,-117.91,0,-1642563.08546216,-1041511.25963779,"West Covina"
"962","West Des Moines IA","IA",57126,41.57,-93.75,0,519548.194365681,-361584.708524067,"West Des Moines"
"963","West Hartford CT","CT",67156,41.77,-72.75,0,2209111.18741136,14138.7021535419,"West Hartford"
"964","West Haven CT","CT",53545,41.27,-72.97,0,2209661.7311149,-45295.2435980273,"West Haven"
"965","West Jordan UT","UT",105629,40.6,-111.99,0,-1008611.91613331,-415680.946188445,"West Jordan"
"966","West New York NY","NY",46091,40.77,-73.98,0,2147475.74943994,-125919.405062668,"West New York"
"967","West Orange NJ","NJ",48754,40.79,-74.26,0,2124664.97432832,-131116.287313292,"West Orange"
"968","West Palm Beach FL","FL",95924,26.75,-80.13,0,1977617.15669755,-1795567.76562217,"West Palm Beach"
"969","West Sacramento CA","CA",43656,38.56,-121.55,0,-1850816.05563185,-473697.526075155,"West Sacramento"
"970","West Seneca NY","NY",44418,42.84,-78.75,0,1708585.27280182,-15667.3330575466,"West Seneca"
"971","West Valley City UT","UT",113989,40.69,-112.01,0,-1008883.80802093,-405507.81736984,"West Valley City"
"972","Westborough MA","MA",41520,42.27,-71.62,0,2277600.6456229,98798.0586955306,"Westborough"
"973","Westfield MA","MA",41068,42.14,-72.76,0,2195169.76826471,53381.7111335954,"Westfield"
"974","Westland MI","MI",84414,42.32,-83.38,0,1355158.15563337,-159653.451754614,"Westland"
"975","Westminster CA","CA",90187,33.75,-117.99,0,-1656049.42535168,-1072731.52778135,"Westminster"
"976","Westminster CO","CO",104708,39.88,-105.05,0,-431014.805887901,-555988.943600194,"Westminster"
"977","Weston FL","FL",72902,26.1,-80.4,0,1964290.65468313,-1872213.93308811,"Weston"
"978","Weymouth MA","MA",54444,42.21,-70.95,0,2330794.61516976,111554.494972235,"Weymouth"
"979","Wheaton IL","IL",54365,41.86,-88.11,0,980767.08808381,-277881.780614319,"Wheaton"
"980","Wheaton-Glenmont MD","MD",61095,39.06,-77.05,0,1952957.52935447,-387184.079756028,"Wheaton-Glenmont"
"981","White Plains NY","NY",58084,41.02,-73.76,0,2156401.24546573,-93289.394377317,"White Plains"
"982","Whittier CA","CA",86182,33.97,-118.02,0,-1654146.17744663,-1048107.90930776,"Whittier"
"983","Wichita Falls TX","TX",100616,33.9,-98.52,0,137228.668209948,-1231141.40353718,"Wichita Falls"
"984","Wichita KS","KS",356051,37.69,-97.34,0,234486.663740815,-808556.762004939,"Wichita"
"985","Wilkes-Barre PA","PA",40242,41.25,-75.88,0,1981619.6159943,-122463.577492564,"Wilkes-Barre"
"986","Wilmington DE","DE",71065,39.74,-75.53,0,2056708.16944792,-276604.061510933,"Wilmington"
"987","Wilmington NC","NC",93097,34.21,-77.91,0,2012081.93263166,-933490.291359776,"Wilmington"
"988","Wilson NC","NC",47191,35.73,-77.92,0,1971472.49406984,-768752.537930507,"Wilson"
"989","Winston-Salem NC","NC",194826,36.1,-80.26,0,1758821.3420496,-780710.545732971,"Winston-Salem"
"990","Woodbury MN","MN",52052,44.91,-92.92,0,556664.420910277,14333.6376337888,"Woodbury"
"991","Woodland CA","CA",52266,38.68,-121.77,0,-1865904.82706527,-455716.938933592,"Woodland"
"992","Woonsocket RI","RI",46297,42,-71.5,0,2296803.71775257,73474.5439698128,"Woonsocket"
"993","Worcester MA","MA",177973,42.27,-71.81,0,2263127.32962383,93453.9733707228,"Worcester"
"994","Wyoming MI","MI",70474,42.89,-85.7,0,1157791.0433977,-132857.619853641,"Wyoming"
"995","Yakima WA","WA",89815,46.59,-120.53,0,-1547576.12765399,376352.336592642,"Yakima"
"996","Yonkers NY","NY",198045,40.95,-73.87,0,2150109.02909353,-103706.928209964,"Yonkers"
"997","Yorba Linda CA","CA",65932,33.89,-117.77,0,-1633271.39401916,-1061709.06606852,"Yorba Linda"
"998","Youngstown OH","OH",76590,41.1,-80.65,0,1603786.55198147,-243542.877942551,"Youngstown"
"999","Yuba City CA","CA",54086,39.14,-121.62,0,-1840922.04937598,-409156.430400062,"Yuba City"
"1000","Yucaipa CA","CA",52333,34.03,-117.04,0,-1564531.75612526,-1060197.50255237,"Yucaipa"
"1001","Yuma AZ","AZ",85720,32.68,-114.62,0,-1368068.71233488,-1249901.66676826,"Yuma"
"1002","Anchorage AK","AK",279428,61.18,-149.19,0,-1141194.29174652,-2041338.87068544,"Anchorage"
"1003","Juneau AK","AK",31187,58.3,-134.42,2,-769682.212551084,-2078025.33995953,"Juneau"
"1004","Hilo HI","HI",43466,19.7,-155.09,0,-140733.126572838,-2254405.05227594,"Hilo"
"1005","Honolulu HI","HI",386345,21.32,-157.8,2,-447240.564535287,-2050959.48373529,"Honolulu"
